<?xml version='1.0' encoding='UTF-8'?>
<osm version="0.6" generator="osmium/1.16.0">
  <node id="177348206" version="9" timestamp="2023-10-08T11:38:24Z" lat="48.7285059" lon="9.3094031">
    <tag k="addr:city" v="Esslingen am Neckar"/>
    <tag k="addr:housenumber" v="87"/>
    <tag k="addr:postcode" v="73734"/>
    <tag k="addr:street" v="Neuffenstraße"/>
    <tag k="amenity" v="restaurant"/>
    <tag k="cuisine" v="regional"/>
    <tag k="name" v="Gaststätte Waldheim"/>
    <tag k="opening_hours" v="Tu 17:00-22:00; We-Fr 11:30-14:00,17:00-22:00; Sa,Su 12:00-22:00"/>
    <tag k="wheelchair" v="yes"/>
  </node>
  <node id="249283634" version="8" timestamp="2019-06-29T11:08:30Z" lat="48.7343087" lon="9.2969363">
    <tag k="amenity" v="restaurant"/>
    <tag k="entrance" v="yes"/>
    <tag k="name" v="Weiler Hof"/>
    <tag k="opening_hours" v="Tu-Th,Su 10:00-02:00, Mo 12:00-02:00, Su 10:00-02:00, Fr,Sa 10:00-03:00"/>
    <tag k="wheelchair" v="no"/>
  </node>
  <node id="271738290" version="25" timestamp="2023-11-11T06:46:56Z" lat="48.7651794" lon="9.2514388">
    <tag k="access:covid19" v="yes"/>
    <tag k="addr:city" v="Stuttgart"/>
    <tag k="addr:country" v="DE"/>
    <tag k="addr:housenumber" v="30"/>
    <tag k="addr:postcode" v="70327"/>
    <tag k="addr:street" v="Kesselstraße"/>
    <tag k="amenity" v="restaurant"/>
    <tag k="cuisine" v="greek"/>
    <tag k="delivery:covid19" v="no"/>
    <tag k="drive_through:covid19" v="no"/>
    <tag k="name" v="Stogi"/>
    <tag k="opening_hours" v="Mo 11:30-14:00; Tu-Fr 11:30-14:00,17:00-22:00; Sa-Su 11:30-22:00"/>
    <tag k="opening_hours:covid19" v="Mo 11:30-14:00; Tu-Fr 11:30-14:00,17:00-22:00; Sa,Su 11:30-22:00"/>
    <tag k="phone" v="+49 711 423531"/>
    <tag k="takeaway" v="yes"/>
    <tag k="takeaway:covid19" v="yes"/>
    <tag k="website" v="https://www.stogi.de/"/>
    <tag k="wheelchair" v="no"/>
  </node>
  <node id="274696157" version="21" timestamp="2023-02-09T22:35:34Z" lat="48.7578672" lon="9.2545753">
    <tag k="addr:city" v="Stuttgart"/>
    <tag k="addr:country" v="DE"/>
    <tag k="addr:housenumber" v="15"/>
    <tag k="addr:postcode" v="70329"/>
    <tag k="addr:street" v="Heumadener Straße"/>
    <tag k="amenity" v="restaurant"/>
    <tag k="cuisine" v="regional;swabian"/>
    <tag k="name" v="Knausbira Stüble"/>
    <tag k="opening_hours" v="Mo off; Tu-Fr 11:30-14:00,18:00-23:00; Sa 17:00-23:00; Su off"/>
    <tag k="outdoor_seating" v="yes"/>
    <tag k="phone" v="+49 711 428805"/>
    <tag k="website" v="https://www.knausbira-stueble.de/"/>
    <tag k="website:menu" v="https://www.knausbira-stueble.de/speisekarte"/>
    <tag k="wheelchair" v="no"/>
  </node>
  <node id="274697503" version="25" timestamp="2020-06-14T09:25:22Z" lat="48.7584862" lon="9.2548273">
    <tag k="addr:city" v="Stuttgart"/>
    <tag k="addr:country" v="DE"/>
    <tag k="addr:housenumber" v="2"/>
    <tag k="addr:postcode" v="70329"/>
    <tag k="addr:street" v="Heumadener Straße"/>
    <tag k="amenity" v="restaurant"/>
    <tag k="cuisine" v="swabian;regional"/>
    <tag k="name" v="Weinstube im &quot;Alten Haus&quot;"/>
    <tag k="opening_hours" v="Mo-Fr 11:30-24:00; Sa off; Su off"/>
    <tag k="outdoor_seating" v="yes"/>
    <tag k="phone" v="+49 711 428887"/>
    <tag k="takeaway" v="yes"/>
    <tag k="website" v="http://www.im-alten-haus.de"/>
  </node>
  <node id="285967550" version="10" timestamp="2020-06-14T09:30:06Z" lat="48.7572546" lon="9.2562617">
    <tag k="addr:city" v="Stuttgart"/>
    <tag k="addr:country" v="DE"/>
    <tag k="addr:housenumber" v="38"/>
    <tag k="addr:postcode" v="70329"/>
    <tag k="addr:street" v="Amstetter Straße"/>
    <tag k="amenity" v="restaurant"/>
    <tag k="email" v="sonja.lenz@arcor.de"/>
    <tag k="name" v="Kultweine-Kochwelten-Kunststücke"/>
    <tag k="phone" v="+49 711 6736813"/>
    <tag k="website" v="https://sonja-lenz.de"/>
  </node>
  <node id="285970577" version="14" timestamp="2020-01-14T17:26:08Z" lat="48.7581395" lon="9.2547074">
    <tag k="addr:city" v="Stuttgart"/>
    <tag k="addr:country" v="DE"/>
    <tag k="addr:housenumber" v="9"/>
    <tag k="addr:postcode" v="70329"/>
    <tag k="addr:street" v="Heumadener Straße"/>
    <tag k="amenity" v="pub"/>
    <tag k="name" v="Kühler Grund"/>
    <tag k="opening_hours" v="Mo 11:30-01:00,Tu-Th 16:00-01:00,Fr-Sa 16:00-03:00;Su off;PH off"/>
    <tag k="outdoor_seating" v="no"/>
    <tag k="smoking" v="dedicated"/>
    <tag k="wheelchair" v="no"/>
  </node>
  <node id="292653633" version="13" timestamp="2024-03-17T12:20:20Z" lat="48.7553548" lon="9.3395605">
    <tag k="addr:city" v="Esslingen am Neckar"/>
    <tag k="addr:housenumber" v="27"/>
    <tag k="addr:postcode" v="73732"/>
    <tag k="addr:street" v="Römerstraße"/>
    <tag k="amenity" v="restaurant"/>
    <tag k="cuisine" v="greek"/>
    <tag k="description" v="Vereinsgaststätte CVJM"/>
    <tag k="diet:vegan" v="yes"/>
    <tag k="diet:vegetarian" v="yes"/>
    <tag k="name" v="Gasthaus Schurwaldhöhe"/>
    <tag k="opening_hours" v="PH,Tu-Su 11:00-22:00; Mo off"/>
    <tag k="outdoor_seating" v="yes"/>
    <tag k="phone" v="+49 711 3515813"/>
    <tag k="wheelchair" v="yes"/>
    <tag k="wikidata" v="Q116884322"/>
  </node>
  <node id="292657026" version="3" timestamp="2014-04-15T12:13:56Z" lat="48.7540931" lon="9.3429334">
    <tag k="amenity" v="restaurant"/>
    <tag k="cuisine" v="greek"/>
    <tag k="name" v="Georgii-Haus"/>
  </node>
  <node id="299625276" version="6" timestamp="2016-08-09T13:00:50Z" lat="48.7189749" lon="9.3178935">
    <tag k="amenity" v="restaurant"/>
    <tag k="name" v="Linde"/>
    <tag k="wheelchair" v="yes"/>
  </node>
  <node id="309106977" version="18" timestamp="2023-03-13T15:24:59Z" lat="48.7381456" lon="9.3038961">
    <tag k="addr:city" v="Esslingen am Neckar"/>
    <tag k="addr:housenumber" v="56"/>
    <tag k="addr:postcode" v="73728"/>
    <tag k="addr:street" v="Pliensaustraße"/>
    <tag k="amenity" v="restaurant"/>
    <tag k="name" v="Posthörnle"/>
    <tag k="opening_hours" v="We-Su 18:00-23:00"/>
    <tag k="phone" v="+49 711 50629131"/>
    <tag k="website" v="https://posthoernle.de/"/>
    <tag k="wheelchair" v="no"/>
  </node>
  <node id="310216579" version="13" timestamp="2023-09-21T12:00:29Z" lat="48.7380312" lon="9.3043434">
    <tag k="addr:city" v="Esslingen"/>
    <tag k="addr:housenumber" v="4"/>
    <tag k="addr:postcode" v="73728"/>
    <tag k="addr:street" v="Kasernenstraße"/>
    <tag k="amenity" v="restaurant"/>
    <tag k="cuisine" v="indian"/>
    <tag k="name" v="Kurkuma Indian Imbiss"/>
    <tag k="opening_hours" v="Mo-Fr 11:30-19:30; Sa closed; Su 17:30-22:00"/>
    <tag k="phone" v="0711 / 36541616"/>
  </node>
  <node id="318385030" version="10" timestamp="2023-04-05T07:13:22Z" lat="48.7402041" lon="9.3120002">
    <tag k="addr:city" v="Esslingen am Neckar"/>
    <tag k="addr:housenumber" v="1"/>
    <tag k="addr:postcode" v="73728"/>
    <tag k="addr:street" v="Ottilienplatz"/>
    <tag k="amenity" v="pub"/>
    <tag k="contact:facebook" v="https://www.facebook.com/pg/KuckGuckEsslingen"/>
    <tag k="description" v="Das urige Bierlokal mit über 20 verschiedenen Sorten Bier in urigem Ambiente in der Esslinger Altsatdt, das seit 1847 als Gaststätte betrieben wird."/>
    <tag k="name" v="Kuck-Guck"/>
    <tag k="opening_hours" v="Tu-Th 08:00-01:00, Fr,Sa 08:00-03:00"/>
    <tag k="operator" v="Volker Müller"/>
    <tag k="smoking" v="outside"/>
    <tag k="wheelchair" v="limited"/>
  </node>
  <node id="318699413" version="23" timestamp="2023-01-21T17:52:52Z" lat="48.741164" lon="9.310153">
    <tag k="access:covid19" v="no"/>
    <tag k="addr:city" v="Esslingen am Neckar"/>
    <tag k="addr:country" v="DE"/>
    <tag k="addr:housenumber" v="3"/>
    <tag k="addr:postcode" v="73728"/>
    <tag k="addr:street" v="Franziskanergasse"/>
    <tag k="amenity" v="restaurant"/>
    <tag k="contact:phone" v="+49 711 35 32 53"/>
    <tag k="contact:website" v="http://www.schwanen.es"/>
    <tag k="cuisine" v="german"/>
    <tag k="delivery:covid19" v="yes"/>
    <tag k="description:covid19" v="Bestellungen per Telefon 0711 / 353253"/>
    <tag k="diet:vegan" v="yes"/>
    <tag k="diet:vegetarian" v="yes"/>
    <tag k="microbrewery" v="yes"/>
    <tag k="name" v="Brauhaus Schwanen"/>
    <tag k="opening_hours" v="Mo-Su 17:30-23:30; Sa, Su 11:30-14:30"/>
    <tag k="opening_hours:covid19" v="Tu-Su 18:00-21:00"/>
    <tag k="outdoor_seating" v="yes"/>
    <tag k="smoking" v="outside"/>
    <tag k="takeaway" v="no"/>
    <tag k="wheelchair" v="no"/>
  </node>
  <node id="320168322" version="19" timestamp="2023-03-16T13:50:58Z" lat="48.7416668" lon="9.3096301">
    <tag k="addr:city" v="Esslingen am Neckar"/>
    <tag k="addr:country" v="DE"/>
    <tag k="addr:housenumber" v="20"/>
    <tag k="addr:postcode" v="73728"/>
    <tag k="addr:street" v="Strohstraße"/>
    <tag k="amenity" v="restaurant"/>
    <tag k="check_date:opening_hours" v="2023-03-16"/>
    <tag k="contact:email" v="info@gambrinus-esslingen.de"/>
    <tag k="contact:phone" v="+49 711 35 96 62"/>
    <tag k="contact:website" v="http://www.gambrinus-esslingen.de"/>
    <tag k="level" v="0"/>
    <tag k="name" v="Gambrinus"/>
    <tag k="opening_hours" v="PH,Th-Tu 11:30-14:00,18:00-24:00"/>
    <tag k="opening_hours:kitchen" v="Mo-We, Fr-Su 11:30-14:00,18:00-22:00"/>
    <tag k="wheelchair" v="no"/>
  </node>
  <node id="320168816" version="11" timestamp="2023-03-16T14:23:09Z" lat="48.7422744" lon="9.3097772">
    <tag k="amenity" v="restaurant"/>
    <tag k="cuisine" v="regional"/>
    <tag k="name" v="Weinkeller Einhorn"/>
    <tag k="opening_hours" v="Tu-Sa 11:30-14:00,17:00-22:30"/>
    <tag k="website" v="http://www.weinkeller-einhorn.de"/>
    <tag k="wheelchair" v="no"/>
  </node>
  <node id="320170038" version="15" timestamp="2023-07-06T07:20:23Z" lat="48.7423545" lon="9.3094549">
    <tag k="addr:city" v="Esslingen am Neckar"/>
    <tag k="addr:country" v="DE"/>
    <tag k="addr:housenumber" v="15"/>
    <tag k="addr:postcode" v="73728"/>
    <tag k="addr:street" v="Heugasse"/>
    <tag k="amenity" v="pub"/>
    <tag k="name" v="Siggis"/>
    <tag k="opening_hours" v="Mo-Fr 16:00-24:00+; Sa 18:00-24:00+"/>
  </node>
  <node id="320171439" version="12" timestamp="2023-02-05T20:27:12Z" lat="48.7420761" lon="9.3079427">
    <tag k="addr:city" v="Esslingen am Neckar"/>
    <tag k="addr:country" v="DE"/>
    <tag k="addr:housenumber" v="11"/>
    <tag k="addr:postcode" v="73728"/>
    <tag k="addr:street" v="Rathausplatz"/>
    <tag k="amenity" v="cafe"/>
    <tag k="email" v="emil.esslingen@gmail.com"/>
    <tag k="name" v="Cafe Emil"/>
    <tag k="opening_hours" v="Su-Fr 09:00-19:00, Su 09:00-18:00"/>
    <tag k="phone" v="+49 711 50444653"/>
    <tag k="smoking" v="no"/>
    <tag k="website" v="https://emil.eatbu.com"/>
    <tag k="wheelchair" v="no"/>
  </node>
  <node id="320173205" version="16" timestamp="2023-05-06T12:52:02Z" lat="48.7414903" lon="9.3072615">
    <tag k="addr:city" v="Esslingen am Neckar"/>
    <tag k="addr:country" v="DE"/>
    <tag k="addr:housenumber" v="2"/>
    <tag k="addr:postcode" v="73728"/>
    <tag k="addr:street" v="Innere Brücke"/>
    <tag k="amenity" v="restaurant"/>
    <tag k="check_date" v="2023-05-06"/>
    <tag k="contact:email" v="info@palmscher-bau.de"/>
    <tag k="contact:phone" v="+49 711 350245"/>
    <tag k="contact:website" v="http://www.palmscher-bau.de"/>
    <tag k="cuisine" v="german"/>
    <tag k="name" v="Palmscher Bau"/>
    <tag k="opening_hours" v="Mo-Su 11:00-24:00; Su 00:00-01:00"/>
    <tag k="wheelchair" v="no"/>
  </node>
  <node id="321506446" version="13" timestamp="2023-03-09T16:13:05Z" lat="48.7299007" lon="9.2521802">
    <tag k="addr:city" v="Ostfildern"/>
    <tag k="addr:housenumber" v="5"/>
    <tag k="addr:postcode" v="73760"/>
    <tag k="addr:street" v="Hedelfinger Straße"/>
    <tag k="amenity" v="restaurant"/>
    <tag k="contact:facebook" v="https://www.facebook.com/DaZiAnna/"/>
    <tag k="cuisine" v="italian"/>
    <tag k="name" v="Ristorante Da Zi Anna"/>
    <tag k="opening_hours" v="Tu-Fr 12:00-14:30,18:00-22:00; Sa 18:00-22:00"/>
    <tag k="phone" v="+49 711 415239"/>
    <tag k="website" v="https://www.dazianna.de/"/>
    <tag k="wheelchair" v="limited"/>
  </node>
  <node id="322058421" version="5" timestamp="2021-05-04T18:08:35Z" lat="48.7709625" lon="9.3565702">
    <tag k="addr:city" v="Aichwald"/>
    <tag k="addr:housenumber" v="11"/>
    <tag k="addr:postcode" v="73773"/>
    <tag k="addr:street" v="Bergstraße"/>
    <tag k="addr:suburb" v="Lobenrot"/>
    <tag k="amenity" v="restaurant"/>
    <tag k="name" v="Waldhorn"/>
    <tag k="opening_hours:kitchen" v="We-Mo 12:00-14:00,17:00+"/>
    <tag k="owner" v="Fam. Kritzner"/>
    <tag k="phone" v="+49 711 361200"/>
    <tag k="wheelchair" v="limited"/>
  </node>
  <node id="330358543" version="5" timestamp="2017-06-18T11:12:27Z" lat="48.7410031" lon="9.2984702">
    <tag k="amenity" v="restaurant"/>
    <tag k="cuisine" v="italian"/>
    <tag k="name" v="Barista"/>
    <tag k="wheelchair" v="yes"/>
  </node>
  <node id="364793352" version="9" timestamp="2019-01-12T21:10:05Z" lat="48.7250062" lon="9.3596769">
    <tag k="amenity" v="restaurant"/>
    <tag k="cuisine" v="greek"/>
    <tag k="ele" v="257"/>
    <tag k="name" v="Zeller Zehnt"/>
    <tag k="opening_hours" v="Mo-Fr 17:30-22:00"/>
  </node>
  <node id="364793861" version="7" timestamp="2023-06-04T15:27:30Z" lat="48.7247548" lon="9.3601334">
    <tag k="amenity" v="fast_food"/>
    <tag k="cuisine" v="kebab"/>
    <tag k="drive_through" v="no"/>
    <tag k="ele" v="240"/>
    <tag k="name" v="Kebaphaus 3S"/>
    <tag k="opening_hours" v="Mo-Sa 10:00-22:00; PH,Su 12:00-22:00"/>
    <tag k="outdoor_seating" v="no"/>
    <tag k="takeaway" v="yes"/>
  </node>
  <node id="364794895" version="8" timestamp="2023-06-23T10:55:03Z" lat="48.7248676" lon="9.3609118">
    <tag k="amenity" v="pub"/>
    <tag k="check_date:opening_hours" v="2023-06-23"/>
    <tag k="ele" v="244"/>
    <tag k="name" v="Zum Fra"/>
    <tag k="opening_hours:signed" v="no"/>
  </node>
  <node id="364796197" version="7" timestamp="2023-06-25T18:06:54Z" lat="48.7249444" lon="9.3604352">
    <tag k="amenity" v="pub"/>
    <tag k="contact:email" v="info@uschisstueble.de"/>
    <tag k="contact:phone" v="+49 711 55093601"/>
    <tag k="contact:website" v="http://uschisstueble.de"/>
    <tag k="ele" v="226"/>
    <tag k="name" v="Wulle Stüble"/>
    <tag k="old_name" v="Uschis Stüble"/>
    <tag k="opening_hours" v="Mo-Sa 14:00-24:00; Su off"/>
    <tag k="outdoor_seating" v="yes"/>
  </node>
  <node id="366965998" version="5" timestamp="2020-09-06T09:08:26Z" lat="48.7317029" lon="9.3672446">
    <tag k="amenity" v="biergarten"/>
    <tag k="ele" v="342"/>
    <tag k="name" v="Paulaner Biergarten"/>
    <tag k="opening_hours" v="Mo,We-Fr 11:00-14:00, Mo-Fr 17:00-21:00; PH,Sa,Su 11:00-21:00"/>
  </node>
  <node id="373783405" version="10" timestamp="2015-06-13T01:41:31Z" lat="48.7409939" lon="9.2991789">
    <tag k="addr:city" v="Esslingen am Neckar"/>
    <tag k="addr:country" v="DE"/>
    <tag k="addr:postcode" v="73728"/>
    <tag k="addr:street" v="Martinstraße"/>
    <tag k="amenity" v="cafe"/>
    <tag k="cuisine" v="german"/>
    <tag k="name" v="Metropolitan"/>
    <tag k="wheelchair" v="limited"/>
    <tag k="wheelchair:description" v="Rollstuhlgerecht , u. Toilette"/>
  </node>
  <node id="418802479" version="5" timestamp="2023-03-19T12:59:39Z" lat="48.7284146" lon="9.3402123">
    <tag k="addr:city" v="Esslingen am Neckar"/>
    <tag k="addr:country" v="DE"/>
    <tag k="addr:housenumber" v="59"/>
    <tag k="addr:postcode" v="73730"/>
    <tag k="addr:street" v="Landhausstraße"/>
    <tag k="amenity" v="restaurant"/>
    <tag k="cuisine" v="greek"/>
    <tag k="name" v="Zum Froschkönig"/>
    <tag k="opening_hours" v="mo-fr 11:00-14:00, 17:00-23:00; sa, su, ph 11:00-23:00"/>
    <tag k="phone" v="+49 711 21478874"/>
    <tag k="website" v="https://zum-froschkoenig-esslingen-am-neckar.eatbu.com"/>
    <tag k="wheelchair" v="no"/>
  </node>
  <node id="419357557" version="6" timestamp="2022-11-20T23:39:43Z" lat="48.7638111" lon="9.296884">
    <tag k="addr:city" v="Esslingen"/>
    <tag k="addr:housenumber" v="8"/>
    <tag k="addr:postcode" v="73733"/>
    <tag k="addr:street" v="Im Bregel"/>
    <tag k="amenity" v="restaurant"/>
    <tag k="cuisine" v="regional;greek"/>
    <tag k="name" v="Sängerheim"/>
    <tag k="website" v="http://www.saengerbund-rsk-voices-esslingen.de/Saengerheim"/>
  </node>
  <node id="429347489" version="14" timestamp="2023-08-15T00:16:33Z" lat="48.7301213" lon="9.2525736">
    <tag k="access:covid19" v="yes"/>
    <tag k="amenity" v="cafe"/>
    <tag k="name" v="Café Backhaus Zoller"/>
    <tag k="opening_hours" v="Mo-Fr 06:00-18:30; Sa 06:00-16:30; Su 07:00-17:30"/>
    <tag k="shop" v="bakery"/>
    <tag k="smoking" v="no"/>
    <tag k="website" v="https://www.backhaus-zoller.de/"/>
    <tag k="wheelchair" v="yes"/>
  </node>
  <node id="429360574" version="10" timestamp="2024-01-28T14:48:07Z" lat="48.7293109" lon="9.2517906">
    <tag k="addr:city" v="Ostfildern"/>
    <tag k="addr:country" v="DE"/>
    <tag k="addr:housenumber" v="24"/>
    <tag k="addr:postcode" v="73760"/>
    <tag k="addr:street" v="Kirchheimer Straße"/>
    <tag k="air_conditioning" v="no"/>
    <tag k="amenity" v="restaurant"/>
    <tag k="cuisine" v="greek"/>
    <tag k="diet:halal" v="no"/>
    <tag k="diet:vegan" v="no"/>
    <tag k="diet:vegetarian" v="no"/>
    <tag k="email" v="info@restaurant-poseidon.net"/>
    <tag k="image" v="https://i.imgur.com/0EJbwZO.jpg"/>
    <tag k="name" v="Poseidon"/>
    <tag k="opening_hours" v="Mo, We-Sa 17:30-22:00; Su 11:30-14:30, 17:30-22:00"/>
    <tag k="payment:cards" v="yes"/>
    <tag k="payment:cash" v="yes"/>
    <tag k="payment:qr_code" v="no"/>
    <tag k="phone" v="+49 711 446061"/>
    <tag k="website" v="https://www.restaurant-poseidon.net/"/>
    <tag k="wheelchair" v="limited"/>
    <tag k="wheelchair:description" v="kein WC für Rollstuhlfahrer"/>
  </node>
  <node id="429360625" version="4" timestamp="2020-01-11T20:42:26Z" lat="48.7281714" lon="9.2520769">
    <tag k="addr:city" v="Ostfildern"/>
    <tag k="addr:housenumber" v="41"/>
    <tag k="addr:postcode" v="73760"/>
    <tag k="addr:street" v="Scharnhauser Straße"/>
    <tag k="amenity" v="restaurant"/>
    <tag k="contact:phone" v="+49 711 415039"/>
    <tag k="cuisine" v="regional"/>
    <tag k="name" v="Alte Dorfschule"/>
    <tag k="opening_hours" v="Tu 17:30-23:00; We-Sa 11:30-14:00,17:30-23:00; Su 11:30-14:30"/>
    <tag k="website" v="https://alte-dorfschule-ruit.de/"/>
    <tag k="wheelchair" v="no"/>
  </node>
  <node id="432733471" version="8" timestamp="2023-11-11T06:53:28Z" lat="48.7405828" lon="9.298357">
    <tag k="amenity" v="restaurant"/>
    <tag k="cuisine" v="mexican"/>
    <tag k="name" v="Joe Peña&apos;s"/>
    <tag k="toilets:wheelchair" v="no"/>
    <tag k="website" v="https://www.joepenas.com/index.php"/>
    <tag k="wheelchair" v="limited"/>
  </node>
  <node id="436610392" version="21" timestamp="2023-10-12T06:19:30Z" lat="48.7160596" lon="9.2961831">
    <tag k="addr:city" v="Ostfildern"/>
    <tag k="addr:country" v="DE"/>
    <tag k="addr:housenumber" v="62"/>
    <tag k="addr:postcode" v="73760"/>
    <tag k="addr:street" v="Ludwig-Jahn-Straße"/>
    <tag k="amenity" v="cafe"/>
    <tag k="indoor_seating" v="yes"/>
    <tag k="name" v="Bäckerei Schultheiss"/>
    <tag k="opening_hours" v="Mo-Fr 06:00-19:00; Sa 07:00-17:00; Su 07:30-17:00"/>
    <tag k="outdoor_seating" v="yes"/>
    <tag k="shop" v="bakery"/>
  </node>
  <node id="443707545" version="3" timestamp="2014-10-05T18:15:32Z" lat="48.7248754" lon="9.3620619">
    <tag k="addr:city" v="Esslingen am Neckar"/>
    <tag k="addr:country" v="DE"/>
    <tag k="addr:housenumber" v="121/2"/>
    <tag k="addr:postcode" v="73730"/>
    <tag k="addr:street" v="Hauptstraße"/>
    <tag k="amenity" v="restaurant"/>
    <tag k="name" v="Gasthof Linde"/>
  </node>
  <node id="444390200" version="9" timestamp="2023-03-16T14:43:26Z" lat="48.7410358" lon="9.3099675">
    <tag k="addr:city" v="Esslingen am Neckar"/>
    <tag k="addr:country" v="DE"/>
    <tag k="addr:housenumber" v="2"/>
    <tag k="addr:postcode" v="73728"/>
    <tag k="addr:street" v="Blarerplatz"/>
    <tag k="amenity" v="cafe"/>
    <tag k="name" v="Café Flair"/>
    <tag k="opening_hours" v="Mo, Th-Su 17:00-22:00"/>
    <tag k="wheelchair" v="limited"/>
  </node>
  <node id="448376501" version="8" timestamp="2023-08-10T20:19:21Z" lat="48.7365905" lon="9.3171458">
    <tag k="amenity" v="fast_food"/>
    <tag k="check_date:opening_hours" v="2023-07-10"/>
    <tag k="description" v="+49176-20943575"/>
    <tag k="name" v="Imbiss Cankiri"/>
    <tag k="opening_hours:signed" v="no"/>
    <tag k="phone" v="+49176-32250986"/>
  </node>
  <node id="448376504" version="7" timestamp="2023-07-10T13:03:23Z" lat="48.7364858" lon="9.3160582">
    <tag k="amenity" v="fast_food"/>
    <tag k="cuisine" v="turkish"/>
    <tag k="name" v="Neckar-Döner"/>
    <tag k="opening_hours" v="Mo-Fr 09:00-23:00; Sa,Su 10:00-23:00"/>
    <tag k="wheelchair" v="no"/>
  </node>
  <node id="449585626" version="4" timestamp="2011-07-19T23:26:16Z" lat="48.7372239" lon="9.315435">
    <tag k="amenity" v="pub"/>
    <tag k="name" v="Charlottenstube"/>
  </node>
  <node id="450988087" version="4" timestamp="2014-06-15T20:26:19Z" lat="48.7403054" lon="9.3130389">
    <tag k="amenity" v="pub"/>
    <tag k="name" v="Pferdestall"/>
  </node>
  <node id="453226528" version="7" timestamp="2023-02-09T22:50:43Z" lat="48.7410509" lon="9.3108714">
    <tag k="addr:postcode" v="73728"/>
    <tag k="amenity" v="restaurant"/>
    <tag k="cuisine" v="regional"/>
    <tag k="email" v="info@kleine-traube.de"/>
    <tag k="name" v="Kleine Traube"/>
    <tag k="opening_hours" v="We-Mo 11:00-22:00"/>
    <tag k="phone" v="+49 711 359460"/>
    <tag k="website" v="http://www.kleine-traube.de/"/>
    <tag k="website:menu" v="http://www.kleine-traube.de/app/download/31869801/Speisekarte+web.pdf"/>
    <tag k="wheelchair" v="no"/>
  </node>
  <node id="453226571" version="10" timestamp="2021-08-04T14:27:50Z" lat="48.7390414" lon="9.3047775">
    <tag k="addr:city" v="Esslingen am Neckar"/>
    <tag k="addr:country" v="DE"/>
    <tag k="addr:housenumber" v="29"/>
    <tag k="addr:postcode" v="73728"/>
    <tag k="addr:street" v="Pliensaustraße"/>
    <tag k="amenity" v="fast_food"/>
    <tag k="cuisine" v="asian"/>
    <tag k="name" v="Asia Kim"/>
    <tag k="opening_hours" v="Mo-Sa 10:30-22:00, Su 11:30-22:00"/>
    <tag k="opening_hours:covid19" v="Mo-Su 11:00-20:00"/>
    <tag k="takeaway" v="yes"/>
    <tag k="takeaway:covid19" v="only"/>
    <tag k="wheelchair" v="limited"/>
  </node>
  <node id="453226719" version="6" timestamp="2023-04-05T07:13:22Z" lat="48.7401671" lon="9.3120003">
    <tag k="amenity" v="bar"/>
    <tag k="check_date:opening_hours" v="2023-04-05"/>
    <tag k="name" v="Brunnenstüble"/>
    <tag k="opening_hours:signed" v="no"/>
    <tag k="toilets" v="yes"/>
  </node>
  <node id="453226724" version="10" timestamp="2023-08-15T00:16:40Z" lat="48.7402445" lon="9.3099064">
    <tag k="addr:city" v="Esslingen am Neckar"/>
    <tag k="addr:country" v="DE"/>
    <tag k="addr:postcode" v="73728"/>
    <tag k="addr:street" v="Küferstraße"/>
    <tag k="amenity" v="cafe"/>
    <tag k="check_date:opening_hours" v="2023-03-16"/>
    <tag k="description:covid19" v="Cafe ist geschlossen, Straßenverkauf Mo-Fr 12:00-18:00"/>
    <tag k="name" v="Eis Cafe Colaone"/>
    <tag k="opening_hours" v="Mo-Fr 12:00-18:00; Sa,Su,PH off"/>
    <tag k="wheelchair" v="limited"/>
  </node>
  <node id="453231899" version="10" timestamp="2023-07-06T07:20:27Z" lat="48.7428363" lon="9.3096025">
    <tag k="amenity" v="bar"/>
    <tag k="check_date:opening_hours" v="2023-07-06"/>
    <tag k="name" v="M Bar"/>
    <tag k="opening_hours:signed" v="no"/>
  </node>
  <node id="453234689" version="11" timestamp="2024-02-12T02:02:13Z" lat="48.7419477" lon="9.3084594">
    <tag k="addr:housenumber" v="8-10"/>
    <tag k="addr:postcode" v="73728"/>
    <tag k="addr:street" v="Hafenmarkt"/>
    <tag k="amenity" v="restaurant"/>
    <tag k="cuisine" v="international"/>
    <tag k="name" v="Embargo"/>
    <tag k="opening_hours" v="Tu-Sa 18:00-00:00"/>
    <tag k="outdoor_seating" v="yes"/>
    <tag k="phone" v="+49 711 50478221"/>
    <tag k="website" v="www.embargoesslingen.de"/>
    <tag k="wheelchair" v="no"/>
  </node>
  <node id="453234690" version="7" timestamp="2023-06-27T16:55:36Z" lat="48.7414275" lon="9.3085358">
    <tag k="addr:city" v="Esslingen am Neckar"/>
    <tag k="addr:country" v="DE"/>
    <tag k="addr:housenumber" v="1"/>
    <tag k="addr:postcode" v="73728"/>
    <tag k="addr:street" v="Hofstatt"/>
    <tag k="amenity" v="restaurant"/>
    <tag k="name" v="Asia-Wok"/>
    <tag k="opening_hours" v="Mo-Sa 10:30-23:00; PH,Su 11:00-23:00"/>
    <tag k="source" v="Luftbilder Stuttgart"/>
  </node>
  <node id="453234694" version="11" timestamp="2023-08-15T00:16:41Z" lat="48.7419963" lon="9.3090137">
    <tag k="amenity" v="cafe"/>
    <tag k="description" v="Öffnung wetterabhängig"/>
    <tag k="description:covid19" v="Öffnung wetterabhängig"/>
    <tag k="diet:vegetarian" v="yes"/>
    <tag k="name" v="Café am Museum"/>
    <tag k="opening_hours" v="PH,Su-Th 14:00-20:00; Fr 14:00-21:00; Sa 13:00-21:00"/>
    <tag k="outdoor_seating" v="yes"/>
    <tag k="takeaway:covid19" v="only"/>
    <tag k="toilets:wheelchair" v="no"/>
    <tag k="wheelchair" v="yes"/>
  </node>
  <node id="453665661" version="9" timestamp="2020-05-31T20:10:11Z" lat="48.7401441" lon="9.3036858">
    <tag k="addr:city" v="Esslingen am Neckar"/>
    <tag k="addr:country" v="DE"/>
    <tag k="addr:postcode" v="73728"/>
    <tag k="amenity" v="fast_food"/>
    <tag k="brand" v="Subway"/>
    <tag k="brand:wikidata" v="Q244457"/>
    <tag k="brand:wikipedia" v="en:Subway (restaurant)"/>
    <tag k="cuisine" v="sandwich"/>
    <tag k="name" v="Subway"/>
    <tag k="opening_hours" v="Mo-Th 09:00-22:00; Fr,Sa 09:00-23:00; Su,PH 12:00-22:00"/>
    <tag k="takeaway" v="yes"/>
    <tag k="wheelchair" v="no"/>
  </node>
  <node id="454105156" version="9" timestamp="2024-02-01T15:14:57Z" lat="48.7381234" lon="9.3040949">
    <tag k="amenity" v="fast_food"/>
    <tag k="check_date:opening_hours" v="2023-09-24"/>
    <tag k="contact:mobile" v="+49 174-9661426"/>
    <tag k="cuisine" v="kebab"/>
    <tag k="name" v="Istanbul Kebap"/>
    <tag k="opening_hours" v="Su off"/>
    <tag k="wheelchair" v="no"/>
  </node>
  <node id="454105159" version="11" timestamp="2023-08-15T00:16:42Z" lat="48.7382692" lon="9.304258">
    <tag k="addr:city" v="Esslingen am Neckar"/>
    <tag k="addr:country" v="DE"/>
    <tag k="addr:housenumber" v="51"/>
    <tag k="addr:street" v="Pliensaustraße"/>
    <tag k="amenity" v="cafe"/>
    <tag k="capacity:covid19" v="2"/>
    <tag k="name" v="Bertazzoni Eis"/>
    <tag k="wheelchair" v="limited"/>
  </node>
  <node id="455503403" version="7" timestamp="2019-04-09T20:51:36Z" lat="48.7265862" lon="9.3262905">
    <tag k="addr:city" v="Esslingen am Neckar"/>
    <tag k="addr:housenumber" v="27"/>
    <tag k="addr:postcode" v="73730"/>
    <tag k="addr:street" v="Inselstraße"/>
    <tag k="amenity" v="restaurant"/>
    <tag k="description" v="öffentl. Eisbahn Gaststätte"/>
    <tag k="name" v="Iglu"/>
    <tag k="wheelchair" v="no"/>
  </node>
  <node id="476657958" version="14" timestamp="2023-12-26T12:28:03Z" lat="48.7407913" lon="9.3032342">
    <tag k="access:covid19" v="no"/>
    <tag k="addr:city" v="Esslingen am Neckar"/>
    <tag k="addr:country" v="DE"/>
    <tag k="addr:postcode" v="73728"/>
    <tag k="amenity" v="fast_food"/>
    <tag k="capacity:covid19" v="1"/>
    <tag k="cuisine" v="kebab"/>
    <tag k="indoor_seating" v="yes"/>
    <tag k="name" v="Konuk Kebap"/>
    <tag k="opening_hours" v="Su-Th 09:00-22:00;Fr,Sa 09:00-23:00"/>
    <tag k="outdoor_seating" v="yes"/>
    <tag k="takeaway:covid19" v="only"/>
    <tag k="wheelchair" v="limited"/>
  </node>
  <node id="476657990" version="8" timestamp="2023-01-11T21:17:29Z" lat="48.7408773" lon="9.3035608">
    <tag k="addr:city" v="Esslingen am Neckar"/>
    <tag k="addr:country" v="DE"/>
    <tag k="addr:housenumber" v="24"/>
    <tag k="addr:postcode" v="73728"/>
    <tag k="addr:street" v="Bahnhofstraße"/>
    <tag k="amenity" v="restaurant"/>
    <tag k="contact:phone" v="+49 711 50491070"/>
    <tag k="contact:website" v="https://cheatdayburgers.de"/>
    <tag k="cuisine" v="burger"/>
    <tag k="indoor_seating" v="yes"/>
    <tag k="name" v="Cheat Day Burgers"/>
    <tag k="opening_hours" v="Mo-Sa 11:00-22:00; Sa 11:00-23:00; Su,PH 12:00-21:30"/>
    <tag k="wheelchair" v="no"/>
  </node>
  <node id="476658012" version="14" timestamp="2023-08-15T00:16:45Z" lat="48.7408414" lon="9.3035398">
    <tag k="access:covid19" v="no"/>
    <tag k="addr:city" v="Esslingen am Neckar"/>
    <tag k="addr:country" v="DE"/>
    <tag k="addr:housenumber" v="24"/>
    <tag k="addr:postcode" v="73728"/>
    <tag k="addr:street" v="Bahnhofstraße"/>
    <tag k="amenity" v="restaurant"/>
    <tag k="contact:fax" v="+49 711 5403257"/>
    <tag k="contact:phone" v="+49 711 5403256"/>
    <tag k="contact:website" v="http://www.al-forno-esslingen.de"/>
    <tag k="cuisine" v="italian"/>
    <tag k="diet:vegetarian" v="yes"/>
    <tag k="indoor_seating" v="yes"/>
    <tag k="name" v="Al Forno"/>
    <tag k="opening_hours" v="Mo-Sa 11:00-23:00; Su 13:00-21:00"/>
    <tag k="outdoor_seating" v="yes"/>
    <tag k="takeaway:covid19" v="only"/>
    <tag k="wheelchair" v="limited"/>
  </node>
  <node id="476658013" version="10" timestamp="2023-08-15T00:16:47Z" lat="48.7407593" lon="9.3034753">
    <tag k="access:covid19" v="no"/>
    <tag k="addr:city" v="Esslingen am Neckar"/>
    <tag k="addr:country" v="DE"/>
    <tag k="addr:postcode" v="73728"/>
    <tag k="amenity" v="cafe"/>
    <tag k="cuisine" v="ice_cream"/>
    <tag k="name" v="Eiscafé Bertazzoni"/>
    <tag k="outdoor_seating" v="yes"/>
    <tag k="takeaway:covid19" v="only"/>
    <tag k="wheelchair" v="limited"/>
  </node>
  <node id="528886512" version="12" timestamp="2020-08-17T15:36:11Z" lat="48.7430622" lon="9.3080451">
    <tag k="addr:city" v="Esslingen am Neckar"/>
    <tag k="addr:country" v="DE"/>
    <tag k="amenity" v="restaurant"/>
    <tag k="cuisine" v="greek"/>
    <tag k="name" v="Armonia"/>
    <tag k="outdoor_seating" v="yes"/>
    <tag k="wheelchair" v="no"/>
  </node>
  <node id="528886514" version="12" timestamp="2017-05-30T13:38:35Z" lat="48.743081" lon="9.305988">
    <tag k="addr:city" v="Esslingen am Neckar"/>
    <tag k="addr:country" v="DE"/>
    <tag k="addr:postcode" v="73728"/>
    <tag k="amenity" v="restaurant"/>
    <tag k="cuisine" v="german"/>
    <tag k="name" v="Hendl Burg"/>
    <tag k="outdoor_seating" v="yes"/>
    <tag k="smoking" v="isolated"/>
    <tag k="wheelchair" v="no"/>
  </node>
  <node id="528886515" version="11" timestamp="2018-03-29T18:00:08Z" lat="48.7430564" lon="9.3062026">
    <tag k="addr:city" v="Esslingen am Neckar"/>
    <tag k="addr:country" v="DE"/>
    <tag k="addr:postcode" v="73728"/>
    <tag k="amenity" v="pub"/>
    <tag k="name" v="Weißbierstube"/>
    <tag k="opening_hours" v="Su-Th,PH 11:00-21:00, Fr 11:00-24:00, Sa 10:00-24:00"/>
    <tag k="outdoor_seating" v="yes"/>
    <tag k="wheelchair" v="no"/>
  </node>
  <node id="528886516" version="17" timestamp="2023-10-29T17:00:49Z" lat="48.7430867" lon="9.3062417">
    <tag k="addr:city" v="Esslingen am Neckar"/>
    <tag k="addr:country" v="DE"/>
    <tag k="addr:postcode" v="73728"/>
    <tag k="amenity" v="restaurant"/>
    <tag k="cuisine" v="indian"/>
    <tag k="diet:vegan" v="yes"/>
    <tag k="diet:vegetarian" v="only"/>
    <tag k="name" v="Copperbowl South Indian Cuisine"/>
    <tag k="opening_hours" v="Tu-Th 12:00-14:30, 18:00-21:30; Fr 12:00-14:30, 17:30-22:00; Sa 12:00-22:00; Su 11:30-14:30, 18:00-21:30"/>
    <tag k="outdoor_seating" v="yes"/>
  </node>
  <node id="528886517" version="8" timestamp="2023-07-06T07:24:01Z" lat="48.7431528" lon="9.3062508">
    <tag k="amenity" v="pub"/>
    <tag k="name" v="Eisbär"/>
    <tag k="opening_hours" v="Mo-Th 19:00-01:00, Fr,Sa 19:00-03:00, Su 15:00-01:00"/>
    <tag k="wheelchair" v="no"/>
  </node>
  <node id="528886518" version="16" timestamp="2018-09-13T11:51:32Z" lat="48.7430505" lon="9.3063974">
    <tag k="addr:city" v="Esslingen am Neckar"/>
    <tag k="addr:country" v="DE"/>
    <tag k="addr:postcode" v="73728"/>
    <tag k="amenity" v="restaurant"/>
    <tag k="cuisine" v="regional"/>
    <tag k="name" v="Kielmeyers Besen"/>
    <tag k="outdoor_seating" v="yes"/>
    <tag k="toilets:wheelchair" v="no"/>
    <tag k="wheelchair" v="yes"/>
  </node>
  <node id="531902856" version="14" timestamp="2023-08-15T00:16:48Z" lat="48.7414257" lon="9.3038284">
    <tag k="addr:city" v="Esslingen am Neckar"/>
    <tag k="addr:country" v="DE"/>
    <tag k="addr:postcode" v="73728"/>
    <tag k="amenity" v="cafe"/>
    <tag k="cuisine" v="ice_cream"/>
    <tag k="name" v="La Torre"/>
    <tag k="opening_hours" v="Mar-Oct Mo-Sa 11:00-19:00; Mar-Oct Su 12:00-19:00"/>
    <tag k="outdoor_seating" v="yes"/>
    <tag k="takeaway:covid19" v="only"/>
    <tag k="wheelchair" v="yes"/>
  </node>
  <node id="557986294" version="11" timestamp="2018-03-15T18:02:35Z" lat="48.7385684" lon="9.3093693">
    <tag k="addr:city" v="Esslingen am Neckar"/>
    <tag k="addr:country" v="DE"/>
    <tag k="addr:housenumber" v="5"/>
    <tag k="addr:postcode" v="73728"/>
    <tag k="addr:street" v="Maillestraße"/>
    <tag k="amenity" v="restaurant"/>
    <tag k="name" v="LUX"/>
    <tag k="opening_hours" v="Mo-Th 17:00-01:00, Fr 16:30-02:00, Sa 14:00-02:00, Su 14:30-24:00"/>
    <tag k="toilets:wheelchair" v="no"/>
    <tag k="wheelchair" v="yes"/>
  </node>
  <node id="582526362" version="9" timestamp="2023-12-09T16:25:49Z" lat="48.740515" lon="9.3052127">
    <tag k="addr:city" v="Esslingen am Neckar"/>
    <tag k="addr:country" v="DE"/>
    <tag k="addr:housenumber" v="9"/>
    <tag k="addr:postcode" v="73728"/>
    <tag k="addr:street" v="Roßmarkt"/>
    <tag k="amenity" v="pub"/>
    <tag k="indoor_seating" v="yes"/>
    <tag k="name" v="Krokodil"/>
    <tag k="opening_hours" v="&quot;Täglich geöffnet&quot;"/>
    <tag k="outdoor_seating" v="yes"/>
    <tag k="wheelchair" v="limited"/>
  </node>
  <node id="582526539" version="14" timestamp="2023-11-11T06:37:09Z" lat="48.7409742" lon="9.3049604">
    <tag k="addr:city" v="Esslingen am Neckar"/>
    <tag k="addr:country" v="DE"/>
    <tag k="addr:housenumber" v="22"/>
    <tag k="addr:postcode" v="73728"/>
    <tag k="addr:street" v="Roßmarkt"/>
    <tag k="amenity" v="restaurant"/>
    <tag k="check_date:opening_hours" v="2023-03-20"/>
    <tag k="cuisine" v="italian"/>
    <tag k="email" v="info@lagondola-esslingen.de"/>
    <tag k="name" v="La Gondola"/>
    <tag k="opening_hours" v="Mo-Su 11:00-23:00"/>
    <tag k="phone" v="+49 711 354357"/>
    <tag k="website" v="https://www.lagondola-esslingen.de/"/>
    <tag k="wheelchair" v="limited"/>
  </node>
  <node id="601788292" version="12" timestamp="2023-03-13T15:26:44Z" lat="48.738236" lon="9.3039943">
    <tag k="amenity" v="restaurant"/>
    <tag k="name" v="John Murphy&apos;s"/>
    <tag k="opening_hours" v="Tu-Th 10:30-24:00, Fr,Sa 10:30-03:00, Su 12:30-23:00"/>
  </node>
  <node id="601788317" version="12" timestamp="2023-08-28T15:22:28Z" lat="48.7403797" lon="9.3094668">
    <tag k="addr:housenumber" v="3"/>
    <tag k="addr:street" v="Küferstraße"/>
    <tag k="amenity" v="fast_food"/>
    <tag k="check_date:opening_hours" v="2023-03-16"/>
    <tag k="description" v="Burek Pizza"/>
    <tag k="name" v="Balkan Spezialitäten Esslingen"/>
    <tag k="opening_hours" v="Mo-Su 07:00-21:00"/>
    <tag k="opening_hours:signed" v="no"/>
  </node>
  <node id="601788318" version="8" timestamp="2023-03-16T13:16:50Z" lat="48.740284" lon="9.3093891">
    <tag k="amenity" v="restaurant"/>
    <tag k="cuisine" v="italian"/>
    <tag k="description" v="Bar"/>
    <tag k="description:covid19" v="Abholservice Montag bis Freitag 11:30-14:30, Vorbestellung ab 09:30 möglich; Tel. +49 711 3006161 und +49 711 3006162"/>
    <tag k="internet_access" v="wlan"/>
    <tag k="name" v="Carpe Diem Pizzabar &amp; Restaurant"/>
    <tag k="opening_hours" v="Mo-Fr 11:30-14:30; Sa 11:30-15:30"/>
    <tag k="website" v="https://www.das-carpe-diem.de/"/>
    <tag k="wheelchair" v="no"/>
  </node>
  <node id="601788322" version="4" timestamp="2011-07-19T23:26:46Z" lat="48.7397013" lon="9.3101151">
    <tag k="amenity" v="cafe"/>
    <tag k="name" v="das Plus"/>
  </node>
  <node id="601788323" version="10" timestamp="2023-03-16T13:05:36Z" lat="48.7401085" lon="9.3103767">
    <tag k="amenity" v="restaurant"/>
    <tag k="capacity:covid19" v="1"/>
    <tag k="contact:phone" v="+49 711 75874008"/>
    <tag k="contact:website" v="http://asia-noodle-no1.de/"/>
    <tag k="cuisine" v="asian"/>
    <tag k="name" v="Asia-Noodle No 1"/>
    <tag k="opening_hours" v="Tu-Sa 11:00-21:00; PH,Su 12:00-21:00"/>
    <tag k="opening_hours:covid19" v="Mo-Su,PH 12:00-21:00"/>
    <tag k="takeaway:covid19" v="only"/>
    <tag k="wheelchair" v="no"/>
  </node>
  <node id="601788332" version="9" timestamp="2023-03-16T13:03:48Z" lat="48.7402763" lon="9.3102513">
    <tag k="addr:city" v="Esslingen am Neckar"/>
    <tag k="addr:country" v="DE"/>
    <tag k="addr:housenumber" v="3"/>
    <tag k="addr:postcode" v="73728"/>
    <tag k="addr:street" v="Blarerplatz"/>
    <tag k="amenity" v="cafe"/>
    <tag k="contact:website" v="http://www.goldmund-esslingen.de/"/>
    <tag k="name" v="Goldmund"/>
    <tag k="opening_hours" v="Mo-Fr 10:00-19:00; PH,Su off; Sa 10:00-15:00"/>
    <tag k="wheelchair" v="no"/>
  </node>
  <node id="601788334" version="8" timestamp="2023-03-23T14:11:50Z" lat="48.7399979" lon="9.3112287">
    <tag k="addr:city" v="Esslingen am Neckar"/>
    <tag k="addr:housenumber" v="21-23"/>
    <tag k="addr:postcode" v="73728"/>
    <tag k="addr:street" v="Küferstraße"/>
    <tag k="amenity" v="bar"/>
    <tag k="description" v="Restaurant · Bar"/>
    <tag k="email" v="gaststaette-zwiebel@web.de"/>
    <tag k="name" v="Zwiebel"/>
    <tag k="opening_hours" v="Mo-Fr 16:00-21:00+"/>
    <tag k="operator" v="Anke Ehmann"/>
    <tag k="phone" v="+49 711 31514913"/>
    <tag k="smoking" v="isolated"/>
    <tag k="website" v="https://www.esslingerzwiebelfest.de/zwiebelwirte/gaststaette-zwiebel.html"/>
    <tag k="wheelchair" v="limited"/>
  </node>
  <node id="601788336" version="9" timestamp="2023-03-23T14:11:50Z" lat="48.7400418" lon="9.3110792">
    <tag k="addr:city" v="Esslingen am Neckar"/>
    <tag k="addr:housenumber" v="19"/>
    <tag k="addr:postcode" v="73728"/>
    <tag k="addr:street" v="Küferstraße"/>
    <tag k="amenity" v="fast_food"/>
    <tag k="contact:phone" v="+49 711 3513341"/>
    <tag k="contact:website" v="http://www.asiawok-esslingen.de/"/>
    <tag k="cuisine" v="asian"/>
    <tag k="name" v="Asia-Wok"/>
    <tag k="opening_hours" v="Mo-Fr 11:00-22:00; Sa 11:00-15:00; Su,PH 12:00-21:00"/>
    <tag k="opening_hours:covid19" v="Mo-Fr,Su 11:00-20:00;Sa 11:00-15:00;PH off"/>
    <tag k="takeaway:covid19" v="only"/>
    <tag k="wheelchair" v="no"/>
  </node>
  <node id="601788348" version="13" timestamp="2023-08-15T00:16:55Z" lat="48.7412248" lon="9.306976">
    <tag k="addr:city" v="Esslingen am Neckar"/>
    <tag k="addr:country" v="DE"/>
    <tag k="addr:housenumber" v="6"/>
    <tag k="addr:postcode" v="73728"/>
    <tag k="addr:street" v="Innere Brücke"/>
    <tag k="amenity" v="cafe"/>
    <tag k="cuisine" v="ice_cream"/>
    <tag k="description" v="Eiscafe"/>
    <tag k="indoor_seating" v="yes"/>
    <tag k="name" v="Eiscafé Dolomiti"/>
    <tag k="opening_hours" v="Tu-Sa 10:30-19:00; Su 13:30-19:00"/>
    <tag k="outdoor_seating" v="yes"/>
    <tag k="phone" v="+49 176 44438787"/>
    <tag k="takeaway:covid19" v="only"/>
    <tag k="wheelchair" v="no"/>
  </node>
  <node id="661084328" version="13" timestamp="2024-02-25T20:17:13Z" lat="48.7426586" lon="9.3079576">
    <tag k="amenity" v="cafe"/>
    <tag k="diet:vegan" v="yes"/>
    <tag k="diet:vegetarian" v="yes"/>
    <tag k="name" v="NALI Coffee &amp; Eatery"/>
    <tag k="opening_hours" v="Mo-Fr 10:00-18:00, Sa 09:00-18:00, Su 10:00-18:00"/>
    <tag k="outdoor_seating" v="yes"/>
    <tag k="phone" v="+49 711 37097979"/>
    <tag k="website" v="https://nali-cafe.de"/>
    <tag k="wheelchair" v="limited"/>
    <tag k="wheelchair:description:de" v="Eingang mit mehreren Stufen. Über eine Bedarfsklingel ist aber ein barrierefreier Aufzug zu EG und OG verfügbar. Zu Toiletten weiss ich nichts.#"/>
  </node>
  <node id="676679351" version="3" timestamp="2011-07-19T22:30:29Z" lat="48.7331135" lon="9.2800952">
    <tag k="amenity" v="biergarten"/>
  </node>
  <node id="717919634" version="13" timestamp="2023-08-15T00:16:58Z" lat="48.7398316" lon="9.305129">
    <tag k="amenity" v="ice_cream"/>
    <tag k="check_date" v="2023-04-18"/>
    <tag k="name" v="GelatOne"/>
    <tag k="opening_hours" v="&quot;eisdiele&quot;"/>
    <tag k="takeaway:covid19" v="only"/>
    <tag k="toilets:wheelchair" v="no"/>
    <tag k="wheelchair" v="yes"/>
  </node>
  <node id="735165759" version="8" timestamp="2014-02-03T21:53:15Z" lat="48.7498244" lon="9.312188">
    <tag k="amenity" v="fast_food"/>
    <tag k="name" v="Pizza &amp; Kebap Harran"/>
    <tag k="wheelchair" v="no"/>
  </node>
  <node id="735167802" version="9" timestamp="2014-02-03T21:53:15Z" lat="48.7497195" lon="9.3120862">
    <tag k="amenity" v="pub"/>
    <tag k="name" v="Melac-Stube"/>
    <tag k="wheelchair" v="yes"/>
  </node>
  <node id="801898256" version="10" timestamp="2018-07-22T13:57:46Z" lat="48.7419161" lon="9.2950074">
    <tag k="addr:city" v="Esslingen"/>
    <tag k="addr:country" v="DE"/>
    <tag k="addr:housenumber" v="13"/>
    <tag k="addr:street" v="Schlachthausstraße"/>
    <tag k="amenity" v="restaurant"/>
    <tag k="name" v="Goldener Ochse"/>
    <tag k="opening_hours" v="Tu-Fr 11:30-14:00, 18:00-00:00; Sa 18:00-00:00"/>
    <tag k="phone" v="+49 711 3509509"/>
    <tag k="website" v="https://www.goldenerochse-esslingen.de"/>
  </node>
  <node id="833879722" version="8" timestamp="2021-06-27T09:03:31Z" lat="48.7707042" lon="9.2961086">
    <tag k="addr:city" v="Esslingen am Neckar"/>
    <tag k="addr:housenumber" v="2"/>
    <tag k="addr:postcode" v="73733"/>
    <tag k="addr:street" v="Katharinenlinde"/>
    <tag k="addr:suburb" v="Rüdern"/>
    <tag k="amenity" v="restaurant"/>
    <tag k="cuisine" v="regional"/>
    <tag k="email" v="essen@katharinenlinde.de"/>
    <tag k="name" v="Höhengaststätte Katharinenlinde"/>
    <tag k="opening_hours" v="Mo-Tu off; We-Fr 12:00-20:00; Sa-Su 11:00-20:00"/>
    <tag k="phone" v="+49 711 75876788"/>
    <tag k="website" v="https://www.katharinenlinde.de/"/>
  </node>
  <node id="914783754" version="9" timestamp="2018-07-22T14:06:37Z" lat="48.7382339" lon="9.3094705">
    <tag k="amenity" v="pub"/>
    <tag k="contact:website" v="http://www.fuenfbisneun.de"/>
    <tag k="email" v="info@fuenfbsineun.de"/>
    <tag k="name" v="Cafe Bar fuenfbisneun"/>
    <tag k="opening_hours" v="Tu-Th 08:00-01:00, Fr-Sa 08:00-03:00"/>
    <tag k="operator" v="Uli"/>
    <tag k="website" v="http://www.fuenfbisneun.de"/>
    <tag k="wheelchair" v="limited"/>
  </node>
  <node id="994668156" version="11" timestamp="2023-10-29T09:18:43Z" lat="48.7404752" lon="9.3029806">
    <tag k="amenity" v="fast_food"/>
    <tag k="cuisine" v="burger;kebab"/>
    <tag k="indoor_seating" v="yes"/>
    <tag k="name" v="Kiris Grillpfanne"/>
    <tag k="opening_hours" v="Mo-Sa 11:00-21:00"/>
    <tag k="outdoor_seating" v="yes"/>
    <tag k="phone" v="+49 711 352639"/>
    <tag k="start_date" v="1981"/>
    <tag k="wheelchair" v="limited"/>
  </node>
  <node id="1027396052" version="11" timestamp="2024-01-24T19:52:13Z" lat="48.7402752" lon="9.3056533">
    <tag k="amenity" v="fast_food"/>
    <tag k="brand" v="Kochlöffel"/>
    <tag k="brand:wikidata" v="Q315539"/>
    <tag k="cuisine" v="burger"/>
    <tag k="indoor_seating" v="yes"/>
    <tag k="name" v="Kochlöffel"/>
    <tag k="opening_hours" v="Mo-Sa 10:30-21:00; PH,Su 11:00-21:00"/>
    <tag k="outdoor_seating" v="yes"/>
    <tag k="takeaway" v="yes"/>
    <tag k="toilets:wheelchair" v="no"/>
    <tag k="wheelchair" v="limited"/>
  </node>
  <node id="1156357507" version="16" timestamp="2023-11-11T06:48:10Z" lat="48.7218272" lon="9.271997">
    <tag k="addr:city" v="Ostfildern"/>
    <tag k="addr:country" v="DE"/>
    <tag k="addr:housenumber" v="2-4"/>
    <tag k="addr:postcode" v="73760"/>
    <tag k="addr:street" v="Gerhard-Koch-Straße"/>
    <tag k="amenity" v="bar"/>
    <tag k="diet:vegan" v="no"/>
    <tag k="diet:vegetarian" v="yes"/>
    <tag k="name" v="ambiente"/>
    <tag k="opening_hours" v="Mo-Fr 11:30+, Mo-Su 17:30+"/>
    <tag k="phone" v="+49 711 7195830"/>
    <tag k="toilets:wheelchair" v="no"/>
    <tag k="website" v="https://www.ambiente-filder.de/"/>
    <tag k="wheelchair" v="limited"/>
    <tag k="wheelchair:description:de" v="keine Rolli-WC´s"/>
  </node>
  <node id="1271568033" version="2" timestamp="2019-06-10T17:15:09Z" lat="48.7257344" lon="9.3409797">
    <tag k="amenity" v="fast_food"/>
    <tag k="name" v="s&apos;Vesperwägele"/>
  </node>
  <node id="1305847046" version="3" timestamp="2011-08-22T12:16:43Z" lat="48.7186758" lon="9.3184698">
    <tag k="amenity" v="cafe"/>
    <tag k="name" v="Café am Rathaus"/>
  </node>
  <node id="1365428169" version="6" timestamp="2014-11-04T19:32:23Z" lat="48.7516984" lon="9.3514365">
    <tag k="addr:housenumber" v="9"/>
    <tag k="addr:street" v="Römerstraße"/>
    <tag k="amenity" v="restaurant"/>
    <tag k="cuisine" v="italian"/>
    <tag k="level" v="1"/>
    <tag k="name" v="La Famiglia"/>
    <tag k="note" v="keine Küche von 14:00 bis 17:00"/>
    <tag k="opening_hours" v="Tu-Fr 11:30-22:00; Sa 11:00-21:00"/>
    <tag k="wheelchair" v="no"/>
  </node>
  <node id="1368121271" version="8" timestamp="2017-08-10T11:42:36Z" lat="48.7590806" lon="9.2540024">
    <tag k="addr:city" v="Stuttgart"/>
    <tag k="addr:country" v="DE"/>
    <tag k="addr:housenumber" v="4"/>
    <tag k="addr:postcode" v="70329"/>
    <tag k="addr:street" v="Rohrackerstraße"/>
    <tag k="amenity" v="fast_food"/>
    <tag k="cuisine" v="kebab"/>
    <tag k="delivery" v="yes"/>
    <tag k="name" v="LIVE Kebap &amp; Pizza"/>
    <tag k="opening_hours" v="Mo-Su 10:00-22:00"/>
    <tag k="phone" v="+49 711 64519441"/>
    <tag k="takeaway" v="yes"/>
    <tag k="wheelchair" v="limited"/>
  </node>
  <node id="1379620451" version="3" timestamp="2016-12-21T14:34:28Z" lat="48.7476733" lon="9.2765614">
    <tag k="amenity" v="cafe"/>
    <tag k="name" v="Cafe Mocca"/>
    <tag k="old_name" v="Bäckerei Bayer"/>
    <tag k="shop" v="bakery"/>
    <tag k="wheelchair" v="no"/>
  </node>
  <node id="1379620454" version="2" timestamp="2014-06-30T22:06:31Z" lat="48.7494934" lon="9.2761818">
    <tag k="amenity" v="restaurant"/>
    <tag k="cuisine" v="italian"/>
    <tag k="name" v="La Conchiglia"/>
  </node>
  <node id="1398908653" version="4" timestamp="2023-12-16T15:03:47Z" lat="48.7650586" lon="9.2670379">
    <tag k="addr:city" v="Stuttgart"/>
    <tag k="addr:country" v="DE"/>
    <tag k="addr:housenumber" v="634"/>
    <tag k="addr:postcode" v="70329"/>
    <tag k="addr:street" v="Augsburger Straße"/>
    <tag k="addr:suburb" v="Obertürkheim"/>
    <tag k="amenity" v="fast_food"/>
    <tag k="delivery" v="yes"/>
    <tag k="name" v="4 Kitchen"/>
    <tag k="old_name" v="Bäckerei Konditorei Bubeck"/>
    <tag k="takeaway" v="yes"/>
    <tag k="website" v="https://4kitchen.simplywebshop.de/"/>
  </node>
  <node id="1426475283" version="12" timestamp="2023-07-10T13:46:03Z" lat="48.7403154" lon="9.3099792">
    <tag k="addr:city" v="Esslingen am Neckar"/>
    <tag k="addr:country" v="DE"/>
    <tag k="addr:housenumber" v="8"/>
    <tag k="addr:postcode" v="73728"/>
    <tag k="addr:street" v="Blarerplatz"/>
    <tag k="amenity" v="cafe"/>
    <tag k="capacity:covid19" v="2"/>
    <tag k="name" v="Kaffeehaus Sonne"/>
    <tag k="opening_hours" v="Mo-Sa 09:30-17:30; PH,Su off"/>
    <tag k="operator" v="W.E.K"/>
    <tag k="phone" v="+49 711 8064053"/>
    <tag k="toilets:wheelchair" v="yes"/>
    <tag k="wheelchair" v="no"/>
  </node>
  <node id="1500064501" version="4" timestamp="2021-11-09T18:22:53Z" lat="48.7180715" lon="9.3197675">
    <tag k="amenity" v="restaurant"/>
    <tag k="cuisine" v="turkish"/>
    <tag k="name" v="Berkheimer Imbiss"/>
    <tag k="toilets:wheelchair" v="no"/>
    <tag k="wheelchair" v="yes"/>
  </node>
  <node id="1525454844" version="6" timestamp="2023-04-27T14:12:46Z" lat="48.7394613" lon="9.309929">
    <tag k="addr:city" v="Esslingen am Neckar"/>
    <tag k="addr:country" v="DE"/>
    <tag k="addr:housename" v="Alte Feuerwache"/>
    <tag k="addr:housenumber" v="6"/>
    <tag k="addr:postcode" v="73728"/>
    <tag k="addr:street" v="Adlerstraße"/>
    <tag k="amenity" v="cafe"/>
    <tag k="check_date:opening_hours" v="2023-04-27"/>
    <tag k="cuisine" v="regional"/>
    <tag k="name" v="Brot&amp;Cafe"/>
    <tag k="opening_hours:signed" v="no"/>
    <tag k="toilets:wheelchair" v="yes"/>
    <tag k="website" v="http://brot-cafe.de"/>
    <tag k="wheelchair" v="yes"/>
  </node>
  <node id="1619045004" version="4" timestamp="2013-12-05T14:21:44Z" lat="48.7257187" lon="9.2732232">
    <tag k="addr:city" v="Ostfildern"/>
    <tag k="addr:country" v="DE"/>
    <tag k="addr:housenumber" v="7"/>
    <tag k="addr:postcode" v="73760"/>
    <tag k="addr:street" v="Herzog-Philipp-Platz"/>
    <tag k="amenity" v="pub"/>
    <tag k="name" v="Café Bar B-17"/>
    <tag k="opening_hours" v="Mo 16:00-24:00; Tu-Sa 00:00-02:00,16:00-24:00; Su 00:00-03:00,14:00-24:00"/>
    <tag k="wheelchair" v="limited"/>
  </node>
  <node id="1654903886" version="4" timestamp="2022-06-07T12:05:14Z" lat="48.7364269" lon="9.3153885">
    <tag k="addr:city" v="Esslingen"/>
    <tag k="addr:housenumber" v="15"/>
    <tag k="addr:postcode" v="73728"/>
    <tag k="addr:street" v="Blumenstraße"/>
    <tag k="amenity" v="restaurant"/>
    <tag k="description" v="Original andalusische Spezialitäten"/>
    <tag k="name" v="Tapas"/>
    <tag k="wheelchair" v="no"/>
  </node>
  <node id="1722774097" version="4" timestamp="2023-04-17T20:16:05Z" lat="48.7323601" lon="9.3369607">
    <tag k="addr:city" v="Esslingen am Neckar"/>
    <tag k="addr:country" v="DE"/>
    <tag k="addr:housenumber" v="63"/>
    <tag k="addr:postcode" v="73730"/>
    <tag k="addr:street" v="Schorndorfer Straße"/>
    <tag k="amenity" v="restaurant"/>
    <tag k="cuisine" v="german"/>
    <tag k="name" v="Ziegelhof"/>
    <tag k="opening_hours" v="Mo-Th 16:00-24:00; Fr,Sa 16:00-24:00"/>
  </node>
  <node id="1730399501" version="11" timestamp="2023-11-11T06:45:39Z" lat="48.7430194" lon="9.3068466">
    <tag k="addr:postcode" v="73728"/>
    <tag k="amenity" v="cafe"/>
    <tag k="cuisine" v="breakfast;coffee_shop"/>
    <tag k="name" v="markt e1ns"/>
    <tag k="opening_hours" v="Mo-Sa 09:00-19:00; Su 10:00-19:00"/>
    <tag k="outdoor_seating" v="yes"/>
    <tag k="phone" v="+49 711 67241077"/>
    <tag k="toilets:wheelchair" v="no"/>
    <tag k="website" v="https://www.m1-es.de/"/>
    <tag k="wheelchair" v="no"/>
  </node>
  <node id="1730409551" version="4" timestamp="2023-07-17T10:03:03Z" lat="48.7409257" lon="9.3036338">
    <tag k="amenity" v="bar"/>
    <tag k="name" v="Piccolino Bar A. Vannacci"/>
    <tag k="opening_hours" v="&quot;Je nach Saison und Wetterlage&quot;"/>
    <tag k="outdoor_seating" v="yes"/>
  </node>
  <node id="1802931275" version="6" timestamp="2022-11-20T23:39:43Z" lat="48.7555255" lon="9.3118961">
    <tag k="addr:city" v="Esslingen am Neckar"/>
    <tag k="addr:housenumber" v="45"/>
    <tag k="addr:postcode" v="73732"/>
    <tag k="addr:street" v="Kolpingstraße"/>
    <tag k="amenity" v="fast_food"/>
    <tag k="cuisine" v="pizza;italian;pasta;salad"/>
    <tag k="delivery" v="yes"/>
    <tag k="drive_through" v="no"/>
    <tag k="name" v="L&apos;Italiano Originale"/>
    <tag k="opening_hours" v="Tu-Fr 11:00-14:00, 17:00-22:00; Sa-Su 17:00-22:00"/>
    <tag k="outdoor_seating" v="no"/>
    <tag k="takeaway" v="yes"/>
    <tag k="website" v="https://www.litalianooriginale-esslingen.de"/>
  </node>
  <node id="1859048010" version="2" timestamp="2015-05-25T09:39:01Z" lat="48.7569515" lon="9.2500995">
    <tag k="amenity" v="pub"/>
    <tag k="name" v="Bistro Merlin"/>
  </node>
  <node id="1883710472" version="5" timestamp="2023-08-15T00:17:20Z" lat="48.7399243" lon="9.3054365">
    <tag k="access:covid19" v="no"/>
    <tag k="amenity" v="fast_food"/>
    <tag k="cuisine" v="kebab"/>
    <tag k="delivery:covid19" v="yes"/>
    <tag k="description:covid19" v="Lieferservice frei Haus, Tel 0711/27310038"/>
    <tag k="name" v="Derwisch Döner"/>
    <tag k="opening_hours" v="Mo-Su 09:00-24:00"/>
    <tag k="takeaway:covid19" v="yes"/>
  </node>
  <node id="1883710482" version="12" timestamp="2023-12-26T12:30:40Z" lat="48.73941" lon="9.3021043">
    <tag k="addr:city" v="Esslingen am Neckar"/>
    <tag k="addr:country" v="DE"/>
    <tag k="addr:housenumber" v="3"/>
    <tag k="addr:postcode" v="73728"/>
    <tag k="addr:street" v="Bahnhofstraße"/>
    <tag k="amenity" v="fast_food"/>
    <tag k="capacity:covid19" v="1"/>
    <tag k="cuisine" v="kebab"/>
    <tag k="indoor_seating" v="yes"/>
    <tag k="level" v="0"/>
    <tag k="name" v="Blue Line Imbiss"/>
    <tag k="opening_hours" v="PH,Mo-Su 11:00-24:00+"/>
    <tag k="outdoor_seating" v="yes"/>
    <tag k="smoking" v="outside"/>
    <tag k="wheelchair" v="limited"/>
    <tag k="wheelchair:description" v="Nur hohe Tische. Aber Zugang Rollstuhlgerecht."/>
  </node>
  <node id="1892867430" version="2" timestamp="2018-12-31T11:30:17Z" lat="48.7621499" lon="9.2683664">
    <tag k="amenity" v="fast_food"/>
    <tag k="cuisine" v="kebab"/>
    <tag k="name" v="Albert&apos;s Kebaphaus"/>
  </node>
  <node id="1892867431" version="2" timestamp="2021-09-12T11:09:12Z" lat="48.7620224" lon="9.268527">
    <tag k="amenity" v="fast_food"/>
    <tag k="name" v="Wurstkessel"/>
    <tag k="opening_hours" v="Mo-Fr 10:00-01:00, Sa 11:00-02:00"/>
  </node>
  <node id="1892867432" version="2" timestamp="2019-02-07T21:55:15Z" lat="48.7622611" lon="9.2682856">
    <tag k="amenity" v="pub"/>
    <tag k="name" v="s&apos;Dampflökle"/>
  </node>
  <node id="1979638916" version="7" timestamp="2023-11-11T06:44:24Z" lat="48.7603254" lon="9.2743194">
    <tag k="addr:city" v="Stuttgart"/>
    <tag k="addr:country" v="DE"/>
    <tag k="addr:housenumber" v="13"/>
    <tag k="addr:postcode" v="70329"/>
    <tag k="addr:street" v="Klingenbachstraße"/>
    <tag k="amenity" v="restaurant"/>
    <tag k="cuisine" v="german"/>
    <tag k="email" v="info@karl-woehrwag.de"/>
    <tag k="fax" v="+49 711 323060"/>
    <tag k="name" v="Weingut und Besenwirtschaft Wöhrwag"/>
    <tag k="phone" v="+49 711 328891"/>
    <tag k="website" v="https://www.karl-woehrwag.de/"/>
  </node>
  <node id="1989046933" version="7" timestamp="2023-04-18T08:36:51Z" lat="48.7400848" lon="9.3047063">
    <tag k="addr:city" v="Esslingen am Neckar"/>
    <tag k="addr:country" v="DE"/>
    <tag k="addr:housenumber" v="22"/>
    <tag k="addr:postcode" v="73728"/>
    <tag k="addr:street" v="Unterer Metzgerbach"/>
    <tag k="amenity" v="restaurant"/>
    <tag k="cuisine" v="chinese"/>
    <tag k="name" v="Asia-City"/>
    <tag k="opening_hours" v="Mo-Fr 11:30-21:00; Sa 12:00-21:00; PH,Su off"/>
    <tag k="takeaway:covid19" v="only"/>
    <tag k="wheelchair" v="limited"/>
  </node>
  <node id="1989046940" version="6" timestamp="2023-01-21T17:52:54Z" lat="48.7388365" lon="9.3044406">
    <tag k="amenity" v="fast_food"/>
    <tag k="contact:phone" v="+49 71120526430"/>
    <tag k="contact:website" v="https://beef-burger-brothers.de"/>
    <tag k="cuisine" v="burger"/>
    <tag k="name" v="Triple B"/>
    <tag k="opening_hours" v="Tu-Th 11:30-21:00; Fr 11:30-22:00; Sa 12:00-22:00; Su,PH 12:00-20:00; Mo off"/>
    <tag k="wheelchair" v="no"/>
  </node>
  <node id="1989046945" version="3" timestamp="2023-09-27T16:16:42Z" lat="48.7357109" lon="9.3209147">
    <tag k="amenity" v="pub"/>
    <tag k="indoor_seating" v="yes"/>
    <tag k="name" v="Lakis Bierstube"/>
    <tag k="opening_hours" v="Mo-Fr 11:00-01:00, Sa,Su 11:00-02:00"/>
    <tag k="outdoor_seating" v="yes"/>
  </node>
  <node id="2051882518" version="2" timestamp="2017-06-21T22:03:03Z" lat="48.7406816" lon="9.3007714">
    <tag k="amenity" v="pub"/>
    <tag k="name" v="Chill"/>
  </node>
  <node id="2051882520" version="2" timestamp="2017-06-21T22:03:03Z" lat="48.7407556" lon="9.30083">
    <tag k="amenity" v="pub"/>
    <tag k="name" v="Red Ox"/>
  </node>
  <node id="2069685509" version="4" timestamp="2018-12-15T21:39:16Z" lat="48.738655" lon="9.3128894">
    <tag k="addr:city" v="Esslingen am Neckar"/>
    <tag k="addr:housenumber" v="17"/>
    <tag k="addr:postcode" v="73728"/>
    <tag k="addr:street" v="Obertorstraße"/>
    <tag k="amenity" v="fast_food"/>
    <tag k="cuisine" v="kebab"/>
    <tag k="name" v="König Kebap Haus"/>
    <tag k="opening_hours" v="Mo-Sa 09:00-23:00, Su 12:00-22:00"/>
    <tag k="wheelchair" v="no"/>
  </node>
  <node id="2080396604" version="5" timestamp="2023-01-21T17:52:54Z" lat="48.736232" lon="9.2991621">
    <tag k="amenity" v="restaurant"/>
    <tag k="cuisine" v="greek"/>
    <tag k="email" v="poseidon-esslingen@web.de"/>
    <tag k="name" v="Poseidon"/>
    <tag k="opening_hours" v="Tu-Su 11:30-14:30,17:30-24:00"/>
    <tag k="phone" v="+49-711-381209"/>
    <tag k="website" v="http://www.poseidon-esslingen.de/"/>
    <tag k="wheelchair" v="no"/>
  </node>
  <node id="2080396608" version="4" timestamp="2021-05-05T06:12:50Z" lat="48.7359311" lon="9.2991829">
    <tag k="amenity" v="fast_food"/>
    <tag k="cuisine" v="kebab"/>
    <tag k="name" v="Stern Pizza &amp; Döner"/>
    <tag k="opening_hours" v="Mo-Th 10:00-23:00, Fr,Sa 10:00-24:00, Su 11:00-22:00"/>
    <tag k="wheelchair" v="yes"/>
  </node>
  <node id="2083414017" version="1" timestamp="2012-12-26T15:15:44Z" lat="48.7596362" lon="9.2541015">
    <tag k="amenity" v="pub"/>
    <tag k="name" v="Bistro Hedelfinger Platz"/>
  </node>
  <node id="2083429440" version="1" timestamp="2012-12-26T15:28:32Z" lat="48.759547" lon="9.254205">
    <tag k="amenity" v="pub"/>
    <tag k="name" v="Endstation"/>
  </node>
  <node id="2102954450" version="4" timestamp="2018-04-05T15:53:54Z" lat="48.7402367" lon="9.2994953">
    <tag k="amenity" v="fast_food"/>
    <tag k="cuisine" v="kebab"/>
    <tag k="name" v="Orra Dönerlounge"/>
    <tag k="wheelchair" v="no"/>
  </node>
  <node id="2122034141" version="2" timestamp="2024-02-24T14:21:22Z" lat="48.746648" lon="9.3170037">
    <tag k="amenity" v="cafe"/>
    <tag k="check_date:opening_hours" v="2024-02-24"/>
    <tag k="name" v="Café Flandern"/>
    <tag k="opening_hours:signed" v="no"/>
    <tag k="operator" v="Lebenshilfe"/>
  </node>
  <node id="2164151776" version="4" timestamp="2018-04-10T16:56:41Z" lat="48.7307493" lon="9.2534898">
    <tag k="addr:city" v="Ostfildern"/>
    <tag k="addr:housenumber" v="26"/>
    <tag k="addr:postcode" v="73760"/>
    <tag k="addr:street" v="Hedelfinger Straße"/>
    <tag k="amenity" v="bar"/>
    <tag k="name" v="Zum Wohl"/>
    <tag k="opening_hours" v="Mo-Su 10:00-22:00"/>
    <tag k="wheelchair" v="limited"/>
  </node>
  <node id="2189047826" version="10" timestamp="2024-02-14T23:14:18Z" lat="48.73257" lon="9.3271078">
    <tag k="addr:city" v="Esslingen am Neckar"/>
    <tag k="addr:country" v="DE"/>
    <tag k="addr:housenumber" v="81"/>
    <tag k="addr:postcode" v="73730"/>
    <tag k="addr:street" v="Plochinger Straße"/>
    <tag k="amenity" v="restaurant"/>
    <tag k="check_date:opening_hours" v="2024-02-14"/>
    <tag k="cuisine" v="indian"/>
    <tag k="name" v="kohinoor"/>
    <tag k="opening_hours:signed" v="no"/>
    <tag k="phone" v="+49 711 93 18 390"/>
    <tag k="website" v="https://www.hotel-ri.de/"/>
    <tag k="wheelchair" v="yes"/>
  </node>
  <node id="2261280879" version="9" timestamp="2023-09-29T08:41:19Z" lat="48.7166853" lon="9.2935946">
    <tag k="addr:city" v="Ostfildern"/>
    <tag k="addr:housenumber" v="6"/>
    <tag k="addr:postcode" v="73760"/>
    <tag k="addr:street" v="In den Anlagen"/>
    <tag k="amenity" v="restaurant"/>
    <tag k="indoor_seating" v="yes"/>
    <tag k="name" v="Maultaschen Boutique"/>
    <tag k="opening_hours" v="Mo-Fr 11:30-14:00"/>
    <tag k="opening_hours:signed" v="no"/>
    <tag k="outdoor_seating" v="yes"/>
    <tag k="website" v="https://maultaschen-restaurant.de/"/>
    <tag k="wheelchair" v="yes"/>
  </node>
  <node id="2264140130" version="1" timestamp="2013-04-12T06:44:53Z" lat="48.7178116" lon="9.2898686">
    <tag k="amenity" v="restaurant"/>
    <tag k="name" v="Tennishütte"/>
  </node>
  <node id="2419608090" version="6" timestamp="2019-03-07T22:09:51Z" lat="48.7264667" lon="9.2625651">
    <tag k="addr:city" v="Ostfildern"/>
    <tag k="addr:country" v="DE"/>
    <tag k="addr:housenumber" v="123"/>
    <tag k="addr:postcode" v="73760"/>
    <tag k="addr:street" v="Kirchheimer Straße"/>
    <tag k="amenity" v="bar"/>
    <tag k="name" v="Bar O&apos;Seven"/>
    <tag k="phone" v="+49 711 90037494"/>
    <tag k="website" v="https://zinsholz.de/"/>
    <tag k="wheelchair" v="yes"/>
  </node>
  <node id="2431359892" version="1" timestamp="2013-08-25T18:23:34Z" lat="48.7344252" lon="9.3164336">
    <tag k="amenity" v="pub"/>
    <tag k="name" v="Muppets"/>
  </node>
  <node id="2476842444" version="4" timestamp="2018-04-28T17:15:46Z" lat="48.7204514" lon="9.2718903">
    <tag k="addr:city" v="Ostfildern"/>
    <tag k="addr:country" v="DE"/>
    <tag k="addr:housenumber" v="9"/>
    <tag k="addr:postcode" v="73760"/>
    <tag k="addr:street" v="Niemöllerstraße"/>
    <tag k="addr:suburb" v="Scharnhauser Park"/>
    <tag k="amenity" v="pub"/>
    <tag k="name" v="Barbarossa"/>
    <tag k="opening_hours" v="Mo-Su 10:00-03:00"/>
  </node>
  <node id="2486131568" version="7" timestamp="2021-08-14T10:56:42Z" lat="48.7299613" lon="9.2521839">
    <tag k="addr:city" v="Ostfildern"/>
    <tag k="addr:housenumber" v="30"/>
    <tag k="addr:postcode" v="73760"/>
    <tag k="addr:street" v="Kronenstraße"/>
    <tag k="amenity" v="ice_cream"/>
    <tag k="brand" v="Giovanni L."/>
    <tag k="contact:website" v="https://www.giovannil.com/"/>
    <tag k="disused:name" v="Metzgerei Widmayer"/>
    <tag k="indoor_seating" v="yes"/>
    <tag k="name" v="Giovanni L. Eiscafé"/>
    <tag k="outdoor_seating" v="yes"/>
  </node>
  <node id="2497005685" version="7" timestamp="2023-04-16T12:28:54Z" lat="48.7208834" lon="9.258296">
    <tag k="addr:city" v="Ostfildern"/>
    <tag k="addr:housenumber" v="1"/>
    <tag k="addr:postcode" v="73760"/>
    <tag k="addr:street" v="Talwiesen"/>
    <tag k="amenity" v="restaurant"/>
    <tag k="diet:vegetarian" v="no"/>
    <tag k="name" v="Vereinsgaststätte Talwiesen"/>
    <tag k="opening_hours" v="Tu-Sa 11:00-14:30,17:00-22:00; Su 11:00-14:30,17:00-21:00"/>
    <tag k="phone" v="+49 711 4403166"/>
    <tag k="wheelchair" v="limited"/>
  </node>
  <node id="2497015859" version="5" timestamp="2018-04-28T17:15:47Z" lat="48.7203732" lon="9.2719105">
    <tag k="addr:city" v="Ostfildern"/>
    <tag k="addr:country" v="DE"/>
    <tag k="addr:housenumber" v="11"/>
    <tag k="addr:postcode" v="73760"/>
    <tag k="addr:street" v="Niemöllerstraße"/>
    <tag k="addr:suburb" v="Scharnhauser Park"/>
    <tag k="amenity" v="bar"/>
    <tag k="name" v="Kian Lounge"/>
    <tag k="phone" v="+49 172 7456706"/>
  </node>
  <node id="2497017017" version="3" timestamp="2014-04-05T22:15:45Z" lat="48.7213295" lon="9.2710913">
    <tag k="addr:city" v="Ostfildern"/>
    <tag k="addr:housenumber" v="1"/>
    <tag k="addr:postcode" v="73760"/>
    <tag k="addr:street" v="Bonhoefferstraße"/>
    <tag k="amenity" v="fast_food"/>
    <tag k="name" v="Park Kebap"/>
    <tag k="wheelchair" v="limited"/>
  </node>
  <node id="2497047891" version="5" timestamp="2018-11-12T23:52:34Z" lat="48.7259216" lon="9.2725039">
    <tag k="addr:city" v="Ostfildern"/>
    <tag k="addr:housenumber" v="8"/>
    <tag k="addr:postcode" v="73760"/>
    <tag k="addr:street" v="Herzog-Philipp-Platz"/>
    <tag k="amenity" v="fast_food"/>
    <tag k="contact:phone" v="+49 711 8828458"/>
    <tag k="contact:website" v="http://www.pizzaamigo-ostfildern.de/"/>
    <tag k="cuisine" v="pizza"/>
    <tag k="name" v="Pizzaservice Amigo"/>
    <tag k="opening_hours" v="Mo-Fr 10:30-22:50; Sa,Su 11:30-22:50"/>
    <tag k="wheelchair" v="no"/>
  </node>
  <node id="2497048067" version="3" timestamp="2018-07-17T14:24:45Z" lat="48.7259951" lon="9.2725682">
    <tag k="addr:city" v="Ostfildern"/>
    <tag k="addr:postcode" v="73760"/>
    <tag k="addr:street" v="Herzog-Philipp-Platz"/>
    <tag k="amenity" v="pub"/>
    <tag k="name" v="Parkstüble"/>
    <tag k="wheelchair" v="limited"/>
  </node>
  <node id="2497054676" version="3" timestamp="2017-08-18T21:58:54Z" lat="48.7325961" lon="9.2560244">
    <tag k="addr:city" v="Ostfildern"/>
    <tag k="addr:housenumber" v="21"/>
    <tag k="addr:postcode" v="73760"/>
    <tag k="addr:street" v="Im Holder"/>
    <tag k="amenity" v="pub"/>
    <tag k="name" v="Bottich"/>
    <tag k="phone" v="+49 711 413110"/>
    <tag k="wheelchair" v="no"/>
  </node>
  <node id="2497059464" version="11" timestamp="2023-10-02T21:14:02Z" lat="48.7293766" lon="9.2511328">
    <tag k="addr:city" v="Ostfildern"/>
    <tag k="addr:housenumber" v="4"/>
    <tag k="addr:postcode" v="73760"/>
    <tag k="addr:street" v="Kirchheimer Straße"/>
    <tag k="amenity" v="fast_food"/>
    <tag k="cuisine" v="chinese"/>
    <tag k="diet:halal" v="no"/>
    <tag k="diet:vegan" v="no"/>
    <tag k="diet:vegetarian" v="limited"/>
    <tag k="image" v="https://i.imgur.com/mgQD11k.jpg"/>
    <tag k="name" v="Hop Sing"/>
    <tag k="opening_hours" v="Mo 11:00-15:00; Tu-Su 11:00-15:30, 17:00-21:30"/>
    <tag k="organic" v="no"/>
    <tag k="phone" v="+49 711 2488688"/>
    <tag k="takeaway" v="yes"/>
    <tag k="wheelchair" v="limited"/>
  </node>
  <node id="2606555404" version="9" timestamp="2023-08-15T00:17:28Z" lat="48.7357348" lon="9.301262">
    <tag k="access:covid19" v="yes"/>
    <tag k="amenity" v="fast_food"/>
    <tag k="cuisine" v="turkish"/>
    <tag k="drive_through:covid19" v="no"/>
    <tag k="name" v="Doy &amp; Doy"/>
    <tag k="opening_hours" v="Mo-Su,PH 10:30-22:00"/>
    <tag k="takeaway:covid19" v="yes"/>
    <tag k="wheelchair" v="yes"/>
  </node>
  <node id="2663539351" version="1" timestamp="2014-02-09T18:27:18Z" lat="48.7567356" lon="9.3079142">
    <tag k="amenity" v="restaurant"/>
    <tag k="name" v="Weinstube Eißele"/>
  </node>
  <node id="2757819522" version="3" timestamp="2020-01-11T00:13:31Z" lat="48.7517636" lon="9.2715997">
    <tag k="addr:city" v="Esslingen"/>
    <tag k="addr:country" v="DE"/>
    <tag k="addr:housenumber" v="12"/>
    <tag k="addr:postcode" v="73733"/>
    <tag k="addr:street" v="Mercedes-Benz Werk 4 (Mettingen)"/>
    <tag k="addr:suburb" v="Mettingen"/>
    <tag k="amenity" v="restaurant"/>
    <tag k="name" v="Betriebsrestaurant"/>
    <tag k="opening_hours" v="Mo-Fr 11:30-13:00,17:30-18:15; PH off"/>
    <tag k="wheelchair" v="yes"/>
  </node>
  <node id="2757819523" version="2" timestamp="2014-04-01T11:02:06Z" lat="48.7514567" lon="9.2718374">
    <tag k="addr:city" v="Esslingen"/>
    <tag k="addr:country" v="DE"/>
    <tag k="addr:housenumber" v="12"/>
    <tag k="addr:postcode" v="73733"/>
    <tag k="addr:street" v="Mercedes-Benz Werk 4 (Mettingen)"/>
    <tag k="addr:suburb" v="Mettingen"/>
    <tag k="amenity" v="cafe"/>
    <tag k="name" v="Café im Betriebsrestaurant"/>
    <tag k="opening_hours" v="Mo-Fr 11:30-13:30; PH off"/>
    <tag k="wheelchair" v="yes"/>
  </node>
  <node id="2771127330" version="4" timestamp="2021-03-31T15:23:42Z" lat="48.7207234" lon="9.2711805">
    <tag k="amenity" v="fast_food"/>
    <tag k="diet:vegetarian" v="yes"/>
    <tag k="name" v="Kebap &amp; Grill Point"/>
    <tag k="opening_hours:signed" v="no"/>
    <tag k="wheelchair" v="limited"/>
  </node>
  <node id="2771475464" version="1" timestamp="2014-04-06T01:29:15Z" lat="48.7201934" lon="9.2719229">
    <tag k="addr:city" v="Ostfildern"/>
    <tag k="addr:country" v="DE"/>
    <tag k="addr:housenumber" v="13"/>
    <tag k="addr:postcode" v="73760"/>
    <tag k="addr:street" v="Niemöllerstraße"/>
    <tag k="addr:suburb" v="Scharnhauser Park"/>
    <tag k="amenity" v="fast_food"/>
    <tag k="cuisine" v="chinese"/>
    <tag k="name" v="New Wok Men"/>
    <tag k="opening_hours" v="Mo 11:30-14:30, 17:30-23:30;Tu-Sa 11:30-15:00, 17:30-23:30"/>
    <tag k="phone" v="+49 711 3428388"/>
  </node>
  <node id="2772217933" version="8" timestamp="2019-11-15T20:03:40Z" lat="48.7664579" lon="9.2710365">
    <tag k="addr:postcode" v="70329"/>
    <tag k="amenity" v="pub"/>
    <tag k="cuisine" v="regional;german"/>
    <tag k="name" v="Besenwirtschaft Rauscher"/>
    <tag k="name:en" v="Wine tavern Rauscher"/>
    <tag k="note" v="only open during certain times of the year - they sell their own wine"/>
    <tag k="phone" v="+49 711 94339924"/>
    <tag k="website" v="https://www.besenwirtschaft-rauscher.de/"/>
  </node>
  <node id="2792477635" version="3" timestamp="2023-11-11T06:52:04Z" lat="48.7537248" lon="9.3461933">
    <tag k="addr:city" v="Esslingen"/>
    <tag k="addr:housenumber" v="17"/>
    <tag k="addr:postcode" v="73732"/>
    <tag k="addr:street" v="Römerstraße"/>
    <tag k="amenity" v="restaurant"/>
    <tag k="cuisine" v="italian"/>
    <tag k="name" v="Reiter-Casino"/>
    <tag k="opening_hours" v="Tu-Fr 16:30-22:00; Sa-Su 11:00-22:00"/>
    <tag k="phone" v="+49 711-57744110"/>
    <tag k="website" v="https://www.reitverein-esslingen.de/23-0-Gaststaette.html"/>
  </node>
  <node id="2825069570" version="8" timestamp="2023-04-18T07:34:59Z" lat="48.7412184" lon="9.3038671">
    <tag k="amenity" v="cafe"/>
    <tag k="capacity:covid19" v="2"/>
    <tag k="name" v="FLO Schwesterherz"/>
    <tag k="opening_hours" v="Mo-Sa 07:00-18:00; Su 08:00-18:00"/>
    <tag k="outdoor_seating" v="yes"/>
    <tag k="shop" v="bakery"/>
    <tag k="takeaway" v="yes"/>
    <tag k="takeaway:covid19" v="only"/>
    <tag k="toilets:wheelchair" v="no"/>
    <tag k="wheelchair" v="yes"/>
  </node>
  <node id="2825069571" version="4" timestamp="2023-06-29T22:18:46Z" lat="48.7390102" lon="9.302205">
    <tag k="amenity" v="fast_food"/>
    <tag k="check_date:opening_hours" v="2023-06-29"/>
    <tag k="cuisine" v="kebab"/>
    <tag k="name" v="Asya Kebaphaus"/>
    <tag k="opening_hours" v="Su-Th 10:00-01:00,Fr-Sa 10:00-03:00"/>
    <tag k="opening_hours:signed" v="no"/>
    <tag k="payment:cash" v="yes"/>
    <tag k="payment:credit_cards" v="no"/>
    <tag k="payment:cryptocurrencies" v="no"/>
    <tag k="payment:debit_cards" v="no"/>
    <tag k="payment:electronic_purses" v="no"/>
    <tag k="phone" v="+49 174 9823828"/>
    <tag k="takeaway" v="yes"/>
    <tag k="website" v="http://www.asya-kebabhaus.de"/>
    <tag k="wheelchair" v="yes"/>
  </node>
  <node id="2825069572" version="6" timestamp="2023-06-29T22:18:52Z" lat="48.7387762" lon="9.3036126">
    <tag k="amenity" v="cafe"/>
    <tag k="name" v="Samosa Point"/>
    <tag k="opening_hours" v="Mo-Su 07:30-20:00"/>
  </node>
  <node id="2859168222" version="3" timestamp="2023-04-13T10:49:08Z" lat="48.7311119" lon="9.3336049">
    <tag k="amenity" v="fast_food"/>
    <tag k="name" v="Ozan Pizza-Kebap"/>
    <tag k="opening_hours" v="Mo-Fr 11:00-21:00; Sa,Su 12:00-21:00"/>
    <tag k="wheelchair" v="no"/>
  </node>
  <node id="2923516960" version="2" timestamp="2018-01-24T19:52:42Z" lat="48.7659497" lon="9.2692396">
    <tag k="addr:housenumber" v="32"/>
    <tag k="addr:street" v="Bergstaffelstraße"/>
    <tag k="amenity" v="pub"/>
    <tag k="name" v="Bergstüble"/>
  </node>
  <node id="2944649380" version="10" timestamp="2023-12-09T13:03:11Z" lat="48.7417788" lon="9.3050021">
    <tag k="addr:city" v="Esslingen am Neckar"/>
    <tag k="addr:country" v="DE"/>
    <tag k="addr:housenumber" v="2"/>
    <tag k="addr:postcode" v="73728"/>
    <tag k="addr:street" v="Abt-Fulrad-Straße"/>
    <tag k="amenity" v="restaurant"/>
    <tag k="cuisine" v="italian;pizza;pasta"/>
    <tag k="diet:vegetarian" v="yes"/>
    <tag k="email" v="esslingen@losteria.de"/>
    <tag k="fax" v="+49 711 13634311"/>
    <tag k="level" v="-1"/>
    <tag k="name" v="L&apos;Osteria"/>
    <tag k="opening_hours" v="Mo-Th 11:30-23:00; Fr-Sa 11:30-00:00; Su 12:00-23:00"/>
    <tag k="phone" v="+49 711 13634310"/>
    <tag k="toilets:wheelchair" v="yes"/>
    <tag k="website" v="http://www.losteria.de/?page=LocationPage&amp;locationId=ess"/>
    <tag k="wheelchair" v="yes"/>
  </node>
  <node id="2986739344" version="8" timestamp="2023-04-30T12:39:52Z" lat="48.7418547" lon="9.3051579">
    <tag k="amenity" v="ice_cream"/>
    <tag k="name" v="Eiszeit"/>
    <tag k="opening_hours" v="Mo, We, Th 12:00-18:00; Fr-Su 12:00-19:00"/>
    <tag k="toilets:wheelchair" v="yes"/>
    <tag k="wheelchair" v="yes"/>
  </node>
  <node id="3195761377" version="3" timestamp="2023-03-23T14:11:43Z" lat="48.7391132" lon="9.3124166">
    <tag k="amenity" v="restaurant"/>
    <tag k="check_date:opening_hours" v="2023-03-23"/>
    <tag k="cuisine" v="greek"/>
    <tag k="name" v="Gasthof Bären"/>
    <tag k="opening_hours:signed" v="no"/>
    <tag k="wheelchair" v="no"/>
  </node>
  <node id="3258920761" version="7" timestamp="2023-04-14T11:37:19Z" lat="48.7381477" lon="9.3035515">
    <tag k="addr:city" v="Esslingen am Neckar"/>
    <tag k="addr:country" v="DE"/>
    <tag k="addr:housenumber" v="13"/>
    <tag k="addr:postcode" v="73728"/>
    <tag k="addr:street" v="Neckarstraße"/>
    <tag k="amenity" v="cafe"/>
    <tag k="name" v="Café greenrose"/>
    <tag k="opening_hours" v="Mo 11:00-17:30; Tu-Th 10:00-17:30; Fr,Sa 10:00-19:00; Su 11:00-19:00"/>
  </node>
  <node id="3259832253" version="5" timestamp="2022-08-30T19:49:26Z" lat="48.7672643" lon="9.2505929">
    <tag k="addr:city" v="Stuttgart"/>
    <tag k="addr:housenumber" v="17"/>
    <tag k="addr:postcode" v="70327"/>
    <tag k="addr:street" v="Kesselstraße"/>
    <tag k="amenity" v="fast_food"/>
    <tag k="cuisine" v="pizza"/>
    <tag k="drive_through" v="no"/>
    <tag k="name" v="Pista Pasta"/>
    <tag k="opening_hours" v="Mo off; Tu-Th 15:00-22:00; Fr 16:00-23:30; Sa 16:00-23:00; Su 16:00-22:00"/>
    <tag k="phone" v="+49 711 50659990"/>
    <tag k="takeaway" v="yes"/>
    <tag k="website" v="https://www.pizzapasta-stuttgart-wangen.de/"/>
  </node>
  <node id="3259833984" version="8" timestamp="2023-11-12T13:54:15Z" lat="48.7599669" lon="9.2539208">
    <tag k="addr:city" v="Stuttgart"/>
    <tag k="addr:country" v="DE"/>
    <tag k="addr:housenumber" v="8"/>
    <tag k="addr:postcode" v="70329"/>
    <tag k="addr:street" v="Hedelfinger Platz"/>
    <tag k="amenity" v="fast_food"/>
    <tag k="check_date" v="2023-11-12"/>
    <tag k="cuisine" v="kebab"/>
    <tag k="name" v="Star Kebap Haus Hedelfingen"/>
    <tag k="opening_hours" v="Jun-Oct: Mo-Sa 11:00-22:30; 12:00-22:30; Nov-May: Mo-Sa 11:00-22:00; PH 12:00-22:00"/>
    <tag k="phone" v="+49 711 50452956"/>
    <tag k="takeaway" v="yes"/>
    <tag k="website" v="http://www.starkebaphaus-wangen.de"/>
  </node>
  <node id="3273225298" version="1" timestamp="2015-01-06T15:17:06Z" lat="48.7647025" lon="9.2701282">
    <tag k="addr:city" v="Stuttgart"/>
    <tag k="addr:housenumber" v="31"/>
    <tag k="addr:postcode" v="70329"/>
    <tag k="addr:street" v="Uhlbacher Straße"/>
    <tag k="amenity" v="restaurant"/>
    <tag k="cuisine" v="regional"/>
    <tag k="name" v="Besenwirtschaft Ruoff"/>
    <tag k="opening_hours" v="Mo-Sa 11:00-24:00"/>
    <tag k="website" v="http://weinbau-ruoff.de"/>
  </node>
  <node id="3280786466" version="3" timestamp="2018-03-16T13:20:57Z" lat="48.728463" lon="9.2991712">
    <tag k="amenity" v="cafe"/>
    <tag k="name" v="Kronenbäckerei Unrath"/>
    <tag k="opening_hours" v="Mo-Fr 6:30-12:30, 14:30-18:30; Sa 6:30-17:00; Su 7:30-17:00"/>
    <tag k="shop" v="bakery"/>
    <tag k="wheelchair" v="no"/>
  </node>
  <node id="3343193758" version="4" timestamp="2022-07-05T11:58:16Z" lat="48.7415788" lon="9.2691428">
    <tag k="addr:city" v="Esslingen am Neckar"/>
    <tag k="addr:housenumber" v="227"/>
    <tag k="addr:postcode" v="73733"/>
    <tag k="addr:street" v="Weilstraße"/>
    <tag k="amenity" v="fast_food"/>
    <tag k="cuisine" v="greek"/>
    <tag k="level" v="0"/>
    <tag k="name" v="Alexandros"/>
    <tag k="opening_hours" v="Mo-Sa 10:00-20:00"/>
    <tag k="shop" v="clothes"/>
    <tag k="wheelchair" v="yes"/>
  </node>
  <node id="3362988376" version="3" timestamp="2023-08-19T13:47:35Z" lat="48.762705" lon="9.268501">
    <tag k="amenity" v="cafe"/>
  </node>
  <node id="3364716893" version="7" timestamp="2022-10-12T16:53:53Z" lat="48.7390415" lon="9.311829">
    <tag k="addr:city" v="Esslingen am Neckar"/>
    <tag k="addr:housenumber" v="10"/>
    <tag k="addr:postcode" v="73728"/>
    <tag k="addr:street" v="Kiesstraße"/>
    <tag k="amenity" v="fast_food"/>
    <tag k="cuisine" v="kebab"/>
    <tag k="name" v="Class Kebap"/>
    <tag k="wheelchair" v="limited"/>
  </node>
  <node id="3384360980" version="4" timestamp="2020-11-07T20:52:45Z" lat="48.7300384" lon="9.252778">
    <tag k="addr:city" v="Ostfildern"/>
    <tag k="addr:housenumber" v="14"/>
    <tag k="addr:postcode" v="73760"/>
    <tag k="addr:street" v="Hedelfinger Straße"/>
    <tag k="amenity" v="fast_food"/>
    <tag k="cuisine" v="turkish"/>
    <tag k="name" v="Ruiter Kebaphaus"/>
    <tag k="takeaway" v="yes"/>
    <tag k="wheelchair" v="limited"/>
  </node>
  <node id="3484523104" version="3" timestamp="2015-05-08T07:08:32Z" lat="48.7446446" lon="9.275312">
    <tag k="addr:city" v="Esslingen"/>
    <tag k="addr:housenumber" v="10"/>
    <tag k="addr:postcode" v="73733"/>
    <tag k="addr:street" v="Max-Eyth-Straße"/>
    <tag k="amenity" v="restaurant"/>
    <tag k="name" v="Restaurant Schlemmertöpfle"/>
  </node>
  <node id="3499359883" version="7" timestamp="2023-08-15T00:17:40Z" lat="48.7405778" lon="9.3093724">
    <tag k="access:covid19" v="no"/>
    <tag k="addr:city" v="Esslingen am Neckar"/>
    <tag k="addr:country" v="DE"/>
    <tag k="addr:housenumber" v="6"/>
    <tag k="addr:postcode" v="73728"/>
    <tag k="addr:street" v="Strohstraße"/>
    <tag k="amenity" v="restaurant"/>
    <tag k="contact:email" v="hallo@theatercafe.es"/>
    <tag k="contact:phone" v="+49 711 352033"/>
    <tag k="contact:website" v="https://theatercafe.es/"/>
    <tag k="cuisine" v="local"/>
    <tag k="delivery:covid19" v="yes"/>
    <tag k="description:covid19" v="Aushang im Fenster: &quot;Wir liefern bis 22 Uhr!&quot;"/>
    <tag k="name" v="Theatercafé"/>
    <tag k="opening_hours" v="Mo-Sa 18:00-22:00+"/>
    <tag k="takeaway:covid19" v="yes"/>
    <tag k="wheelchair" v="no"/>
  </node>
  <node id="3513112328" version="1" timestamp="2015-05-12T19:30:59Z" lat="48.7622066" lon="9.2693112">
    <tag k="amenity" v="cafe"/>
    <tag k="name" v="Cafe Amadeus"/>
  </node>
  <node id="3578223706" version="6" timestamp="2023-08-01T05:42:09Z" lat="48.7580682" lon="9.2544014">
    <tag k="addr:city" v="Stuttgart"/>
    <tag k="addr:housenumber" v="14"/>
    <tag k="addr:postcode" v="70329"/>
    <tag k="addr:street" v="Heumadener Straße"/>
    <tag k="amenity" v="restaurant"/>
    <tag k="cuisine" v="pizza;swabian"/>
    <tag k="name" v="Gasthaus zur Krone"/>
    <tag k="outdoor_seating" v="yes"/>
    <tag k="wheelchair" v="no"/>
  </node>
  <node id="3708479372" version="4" timestamp="2023-09-03T14:14:47Z" lat="48.7518669" lon="9.3492111">
    <tag k="amenity" v="biergarten"/>
    <tag k="name" v="Jägerhaus"/>
    <tag k="toilets:wheelchair" v="yes"/>
    <tag k="wheelchair" v="yes"/>
  </node>
  <node id="4104739289" version="4" timestamp="2019-03-10T18:38:33Z" lat="48.7331595" lon="9.280179">
    <tag k="addr:housenumber" v="2"/>
    <tag k="addr:street" v="Waldacker"/>
    <tag k="amenity" v="restaurant"/>
    <tag k="contact:facebook" v="https://facebook.com/Restaurantschreberhaus/"/>
    <tag k="cuisine" v="regional;international;grill;ice_cream;crepe;coffee_shop;local;pancake;german;romanian"/>
    <tag k="email" v="gaststatteschreberhaus@yahoo.com"/>
    <tag k="name" v="Gaststatte Schreberhaus"/>
    <tag k="opening_hours" v="Tu-Su 11:00-23:00"/>
    <tag k="phone" v="+49 711 67212453"/>
  </node>
  <node id="4118588227" version="2" timestamp="2016-04-13T14:19:31Z" lat="48.76264" lon="9.2683462">
    <tag k="addr:city" v="Stuttgart"/>
    <tag k="addr:housenumber" v="23"/>
    <tag k="addr:postcode" v="70329"/>
    <tag k="addr:street" v="Göppinger Straße"/>
    <tag k="amenity" v="pub"/>
    <tag k="name" v="Schwaben-Treff"/>
  </node>
  <node id="4125232941" version="4" timestamp="2020-04-02T19:02:14Z" lat="48.7605416" lon="9.2560726">
    <tag k="addr:city" v="Stuttgart"/>
    <tag k="addr:country" v="DE"/>
    <tag k="addr:housenumber" v="21"/>
    <tag k="addr:postcode" v="70329"/>
    <tag k="addr:street" v="Otto-Hirsch-Brücken"/>
    <tag k="addr:suburb" v="Hedelfingen"/>
    <tag k="amenity" v="fast_food"/>
    <tag k="brand" v="Burger King"/>
    <tag k="brand:wikidata" v="Q177054"/>
    <tag k="brand:wikipedia" v="en:Burger King"/>
    <tag k="cuisine" v="burger"/>
    <tag k="drive_through" v="yes"/>
    <tag k="fax" v="+49 711 3102449"/>
    <tag k="name" v="Burger King"/>
    <tag k="opening_hours" v="Mo-Th 10:00-24:00, Fr 10:00-03:00, Sa 10:00-03:00, Su 10:00-24:00, PH 10:00-24:00"/>
    <tag k="opening_hours:lastcheck" v="2016-04-16"/>
    <tag k="phone" v="+49 711 3102447"/>
    <tag k="takeaway" v="yes"/>
    <tag k="website" v="https://www.burgerking.de/"/>
    <tag k="wheelchair" v="yes"/>
  </node>
  <node id="4389111261" version="2" timestamp="2019-09-22T17:17:54Z" lat="48.7572483" lon="9.2548823">
    <tag k="addr:city" v="Stuttgart"/>
    <tag k="addr:housenumber" v="10"/>
    <tag k="addr:postcode" v="70329"/>
    <tag k="addr:street" v="Gärtnerstraße"/>
    <tag k="amenity" v="pub"/>
    <tag k="name" v="Gaststätte Rose"/>
    <tag k="outdoor_seating" v="no"/>
    <tag k="smoking" v="yes"/>
  </node>
  <node id="4403922554" version="6" timestamp="2019-08-06T19:05:46Z" lat="48.7592344" lon="9.2550349">
    <tag k="addr:city" v="Stuttgart"/>
    <tag k="addr:housenumber" v="3"/>
    <tag k="addr:postcode" v="70329"/>
    <tag k="addr:street" v="Amstetter Straße"/>
    <tag k="amenity" v="cafe"/>
    <tag k="email" v="cafedeinz@web.de"/>
    <tag k="name" v="Café deinz"/>
    <tag k="outdoor_seating" v="yes"/>
    <tag k="phone" v="+49 711 50657787"/>
  </node>
  <node id="4412087051" version="2" timestamp="2023-10-02T21:13:53Z" lat="48.7294588" lon="9.2507654">
    <tag k="amenity" v="cafe"/>
    <tag k="name" v="Cafe anatoilia"/>
    <tag k="phone" v="+49 7113101962"/>
  </node>
  <node id="4424621089" version="3" timestamp="2020-05-01T13:29:49Z" lat="48.7593635" lon="9.254684">
    <tag k="amenity" v="pub"/>
    <tag k="name" v="Tabasco"/>
    <tag k="name:de" v="Tabasco"/>
  </node>
  <node id="4536000457" version="6" timestamp="2023-06-17T14:08:49Z" lat="48.7358548" lon="9.3531085">
    <tag k="addr:housenumber" v="3"/>
    <tag k="addr:street" v="Oberhofweg"/>
    <tag k="amenity" v="restaurant"/>
    <tag k="name" v="Hasselwander&apos;s Panorama-Restaurant"/>
    <tag k="opening_hours" v="We-Su 11:30-14:30,17:30-24:00; Tu 11:30-14:30"/>
    <tag k="phone" v="+49 711 3105913"/>
    <tag k="website" v="https://www.hasselwanders.de/"/>
  </node>
  <node id="4565176408" version="1" timestamp="2016-12-21T14:34:24Z" lat="48.7477594" lon="9.2765743">
    <tag k="amenity" v="bar"/>
    <tag k="name" v="Neckarstüble"/>
  </node>
  <node id="4585562959" version="3" timestamp="2023-07-06T07:20:21Z" lat="48.7421926" lon="9.3094534">
    <tag k="addr:postcode" v="73728"/>
    <tag k="amenity" v="restaurant"/>
    <tag k="name" v="Delhi Palace"/>
    <tag k="name:de" v="Delhi Palace"/>
    <tag k="name:en" v="Delhi Palace"/>
    <tag k="opening_hours" v="Tu-Su 12:30-14:30,17:30-22:00"/>
    <tag k="wheelchair" v="no"/>
  </node>
  <node id="4599066695" version="5" timestamp="2023-07-06T07:20:22Z" lat="48.7422816" lon="9.3094689">
    <tag k="addr:city" v="Esslingen am Neckar"/>
    <tag k="addr:housenumber" v="13"/>
    <tag k="addr:postcode" v="73728"/>
    <tag k="addr:street" v="Strohstraße"/>
    <tag k="amenity" v="pub"/>
    <tag k="check_date:opening_hours" v="2023-07-06"/>
    <tag k="name" v="Ad Astra"/>
    <tag k="opening_hours" v="Su-Th 18:30-02:00, Fr,Sa 18:30-03:00"/>
    <tag k="opening_hours:signed" v="no"/>
    <tag k="smoking" v="isolated"/>
    <tag k="wheelchair" v="limited"/>
  </node>
  <node id="4666153224" version="3" timestamp="2023-04-12T00:24:34Z" lat="48.7292803" lon="9.3336808">
    <tag k="alt_name" v="Georgs Pub"/>
    <tag k="amenity" v="pub"/>
    <tag k="check_date:opening_hours" v="2023-04-12"/>
    <tag k="name" v="Andis Stüberl"/>
    <tag k="opening_hours:signed" v="no"/>
    <tag k="smoking" v="yes"/>
    <tag k="source" v="survey"/>
    <tag k="wheelchair" v="no"/>
  </node>
  <node id="4786923234" version="6" timestamp="2023-08-15T00:17:57Z" lat="48.7392399" lon="9.3120685">
    <tag k="addr:city" v="Esslingen am Neckar"/>
    <tag k="addr:housenumber" v="6"/>
    <tag k="addr:postcode" v="73728"/>
    <tag k="addr:street" v="Obertorstraße"/>
    <tag k="amenity" v="cafe"/>
    <tag k="capacity:covid19" v="2"/>
    <tag k="contact:phone" v="+49 711 23037439"/>
    <tag k="description:de" v="mediterane Bäckerei"/>
    <tag k="name" v="Kyano"/>
    <tag k="opening_hours" v="Mo-Sa 07:00-20:00, Su,PH 08:30-20:00"/>
    <tag k="shop" v="bakery"/>
    <tag k="source" v="survey"/>
    <tag k="takeaway:covid19" v="only"/>
    <tag k="wheelchair" v="yes"/>
  </node>
  <node id="4786923237" version="9" timestamp="2023-10-29T09:18:43Z" lat="48.7403853" lon="9.302912">
    <tag k="addr:city" v="Esslingen am Neckar"/>
    <tag k="addr:housenumber" v="12"/>
    <tag k="addr:postcode" v="73728"/>
    <tag k="addr:street" v="Martinstraße"/>
    <tag k="amenity" v="cafe"/>
    <tag k="check_date:opening_hours" v="2022-08-10"/>
    <tag k="diet:vegetarian" v="yes"/>
    <tag k="indoor_seating" v="yes"/>
    <tag k="name" v="Stadtbäckerei Schultheiss"/>
    <tag k="opening_hours" v="Mo-Fr 06:30-19:00; Sa 06:30-18:00; Su 08:00-17:00"/>
    <tag k="outdoor_seating" v="yes"/>
    <tag k="shop" v="bakery"/>
    <tag k="takeaway:covid19" v="only"/>
    <tag k="wheelchair" v="yes"/>
  </node>
  <node id="4912303631" version="3" timestamp="2018-03-21T17:39:09Z" lat="48.7412087" lon="9.3035873">
    <tag k="amenity" v="restaurant"/>
    <tag k="cuisine" v="greek"/>
    <tag k="name" v="Galleria Zeus"/>
    <tag k="opening_hours" v="Tu-Su 17:30-23:00, Fr-Su 12:00-14:30"/>
    <tag k="outdoor_seating" v="yes"/>
    <tag k="wheelchair" v="no"/>
  </node>
  <node id="4935003966" version="3" timestamp="2023-11-11T06:39:02Z" lat="48.7494191" lon="9.2759262">
    <tag k="amenity" v="restaurant"/>
    <tag k="name" v="Bagtas Grillhaus"/>
    <tag k="website" v="https://bagtas.de/"/>
  </node>
  <node id="5053655021" version="3" timestamp="2021-06-28T01:18:40Z" lat="48.7424559" lon="9.3074913">
    <tag k="addr:city" v="Esslingen"/>
    <tag k="addr:country" v="DE"/>
    <tag k="addr:housenumber" v="18"/>
    <tag k="addr:postcode" v="73728"/>
    <tag k="addr:street" v="Rathausplatz"/>
    <tag k="amenity" v="bar"/>
    <tag k="email" v="info@kessler-sekt.de"/>
    <tag k="fax" v="+49 711 31059350"/>
    <tag k="name" v="Kessler Karree 18"/>
    <tag k="opening_hours" v="Mo-Fr 10:00-19:00;Sa 10:00-16:00;Su,PH off"/>
    <tag k="phone" v="+49 711 31059341"/>
    <tag k="website" v="https://kessler-sekt.de/"/>
  </node>
  <node id="5103876450" version="2" timestamp="2017-12-06T23:27:35Z" lat="48.7668341" lon="9.2656114">
    <tag k="addr:city" v="Stuttgart"/>
    <tag k="addr:housenumber" v="601"/>
    <tag k="addr:postcode" v="70329"/>
    <tag k="addr:street" v="Augsburger Straße"/>
    <tag k="amenity" v="pub"/>
    <tag k="name" v="Fässle"/>
    <tag k="smoking" v="yes"/>
  </node>
  <node id="5154729648" version="8" timestamp="2023-06-12T14:47:57Z" lat="48.7415282" lon="9.3043127">
    <tag k="addr:city" v="Esslingen am Neckar"/>
    <tag k="addr:housenumber" v="32"/>
    <tag k="addr:postcode" v="73728"/>
    <tag k="addr:street" v="Bahnhofstraße"/>
    <tag k="amenity" v="cafe"/>
    <tag k="cuisine" v="coffee_shop"/>
    <tag k="diet:vegetarian" v="yes"/>
    <tag k="internet_access" v="wlan"/>
    <tag k="name" v="Café Kauz"/>
    <tag k="opening_hours" v="We,Sa 07:00-17:00; Tu,Th,Fr 09:00-17:00; PH,Su 11:00-17:00"/>
    <tag k="outdoor_seating" v="yes"/>
    <tag k="smoking" v="outside"/>
    <tag k="takeaway:covid19" v="only"/>
    <tag k="website" v="http://cafe-kauz.de/"/>
    <tag k="wheelchair" v="no"/>
  </node>
  <node id="5206175911" version="1" timestamp="2017-11-02T11:00:39Z" lat="48.738713" lon="9.3039008">
    <tag k="addr:city" v="Esslingen am Neckar"/>
    <tag k="addr:housenumber" v="3"/>
    <tag k="addr:postcode" v="73728"/>
    <tag k="addr:street" v="Am Kronenhof"/>
    <tag k="amenity" v="pub"/>
    <tag k="name" v="Stadtschänke"/>
    <tag k="outdoor_seating" v="no"/>
    <tag k="smoking" v="yes"/>
  </node>
  <node id="5209278993" version="3" timestamp="2021-08-14T10:56:42Z" lat="48.7208809" lon="9.2718913">
    <tag k="addr:city" v="Ostfildern"/>
    <tag k="addr:housenumber" v="5"/>
    <tag k="addr:postcode" v="73760"/>
    <tag k="addr:street" v="Niemöllerstraße"/>
    <tag k="amenity" v="ice_cream"/>
    <tag k="brand" v="Giovanni L."/>
    <tag k="contact:website" v="https://www.giovannil.com/standort/ostfildern-giovanni-l-eiscafe/"/>
    <tag k="indoor_seating" v="yes"/>
    <tag k="name" v="Giovanni L. Eiscafé"/>
    <tag k="opening_hours" v="Mo-Su 12:00-20:00"/>
    <tag k="outdoor_seating" v="yes"/>
    <tag k="phone" v="+49 711 26204638"/>
  </node>
  <node id="5221583946" version="3" timestamp="2022-10-14T13:06:59Z" lat="48.7385882" lon="9.3023871">
    <tag k="addr:city" v="Esslingen am Neckar"/>
    <tag k="addr:housenumber" v="3/1"/>
    <tag k="addr:postcode" v="73728"/>
    <tag k="addr:street" v="Neckarstraße"/>
    <tag k="amenity" v="bar"/>
    <tag k="name" v="Trabucco"/>
    <tag k="opening_hours" v="Tu-Th 18:00-24:00, Fr,Sa 18:00-02:00"/>
    <tag k="wheelchair" v="no"/>
  </node>
  <node id="5282739333" version="1" timestamp="2017-12-13T20:48:00Z" lat="48.7318834" lon="9.2895166">
    <tag k="addr:city" v="Esslingen am Neckar"/>
    <tag k="addr:housenumber" v="3"/>
    <tag k="addr:postcode" v="73734"/>
    <tag k="addr:street" v="Geuernrain"/>
    <tag k="amenity" v="restaurant"/>
    <tag k="cuisine" v="croatian"/>
    <tag k="name" v="Hasengarten"/>
  </node>
  <node id="5287331934" version="2" timestamp="2022-06-24T07:13:51Z" lat="48.7625533" lon="9.2687957">
    <tag k="amenity" v="pub"/>
    <tag k="name" v="Escape Lounge"/>
    <tag k="smoking" v="yes"/>
  </node>
  <node id="5337770032" version="6" timestamp="2024-01-23T11:58:31Z" lat="48.7208754" lon="9.2724404">
    <tag k="addr:city" v="Ostfildern"/>
    <tag k="addr:housenumber" v="7/1"/>
    <tag k="addr:postcode" v="73760"/>
    <tag k="addr:street" v="Niemöllerstraße"/>
    <tag k="amenity" v="fast_food"/>
    <tag k="cuisine" v="burger"/>
    <tag k="name" v="Mara Gusto"/>
    <tag k="opening_hours" v="Mo-Fr 08:00-18:00, Sa-So 08:00-12:30"/>
    <tag k="phone" v="+49 711 88 22 44 88"/>
    <tag k="website" v="https://www.maragusto.de"/>
  </node>
  <node id="5356963909" version="5" timestamp="2023-04-21T12:24:28Z" lat="48.742986" lon="9.3081785">
    <tag k="amenity" v="cafe"/>
    <tag k="name" v="Entenmanns"/>
    <tag k="opening_hours" v="Tu-Fr 10:00-18:00, Sa 09:00-14:00"/>
    <tag k="outdoor_seating" v="yes"/>
    <tag k="wheelchair" v="no"/>
  </node>
  <node id="5414851285" version="3" timestamp="2021-02-04T08:53:57Z" lat="48.739019" lon="9.2772852">
    <tag k="amenity" v="restaurant"/>
    <tag k="cuisine" v="italian"/>
    <tag k="name" v="Piccolo Mondo Da Noi Due"/>
    <tag k="opening_hours" v="Mo-Fr 11:30-14:30, Mo-Sa 17:30-22:30"/>
    <tag k="website" v="https://piccolo-mondo.restaurant/"/>
  </node>
  <node id="5577969146" version="9" timestamp="2023-12-09T16:25:48Z" lat="48.7403716" lon="9.305786">
    <tag k="addr:street" v="Pliensaustraße"/>
    <tag k="amenity" v="restaurant"/>
    <tag k="check_date:opening_hours" v="2023-03-20"/>
    <tag k="indoor_seating" v="yes"/>
    <tag k="name" v="Lo Spaghetto d&apos;Oro"/>
    <tag k="opening_hours:signed" v="no"/>
    <tag k="outdoor_seating" v="yes"/>
  </node>
  <node id="5745611700" version="4" timestamp="2023-06-11T13:09:48Z" lat="48.7645706" lon="9.2779203">
    <tag k="addr:city" v="Esslingen am Neckar"/>
    <tag k="addr:housenumber" v="65"/>
    <tag k="addr:postcode" v="73733"/>
    <tag k="addr:street" v="Uhlbacher Straße"/>
    <tag k="amenity" v="restaurant"/>
    <tag k="biergarten" v="yes"/>
    <tag k="cuisine" v="regional"/>
    <tag k="name" v="Pandoro&apos;s Jausenschenke"/>
    <tag k="opening_hours" v="&quot;keine regelmäßige Öffnungszeiten&quot;"/>
    <tag k="opening_hours:url" v="https://www.pandoro.eu/jausenschenke/"/>
    <tag k="takeaway" v="yes"/>
    <tag k="website" v="http://www.pandoro.eu/jausenschenke/"/>
  </node>
  <node id="5745825988" version="1" timestamp="2018-07-07T19:12:57Z" lat="48.7626435" lon="9.2689955">
    <tag k="addr:city" v="Stuttgart"/>
    <tag k="addr:country" v="DE"/>
    <tag k="addr:housenumber" v="676"/>
    <tag k="addr:postcode" v="70329"/>
    <tag k="addr:street" v="Augsburger Straße"/>
    <tag k="addr:suburb" v="Obertürkheim"/>
    <tag k="amenity" v="bar"/>
    <tag k="name" v="Bar Cafe Ella"/>
  </node>
  <node id="5766071034" version="3" timestamp="2023-07-18T15:18:03Z" lat="48.7267006" lon="9.2817161">
    <tag k="amenity" v="bar"/>
    <tag k="contact:facebook" v="https://www.facebook.com/pg/skylounge327/posts/"/>
    <tag k="name" v="Skylounge 237/Shishabar"/>
  </node>
  <node id="5894739879" version="7" timestamp="2022-03-12T14:15:28Z" lat="48.7417383" lon="9.3051621">
    <tag k="addr:city" v="Esslingen am Neckar"/>
    <tag k="addr:country" v="DE"/>
    <tag k="addr:housenumber" v="2"/>
    <tag k="addr:postcode" v="73728"/>
    <tag k="addr:street" v="Abt-Fulrad-Straße"/>
    <tag k="alt_name" v="Fuji Sapa"/>
    <tag k="amenity" v="restaurant"/>
    <tag k="cuisine" v="japanese;vietnamese"/>
    <tag k="fixme" v="Klären: Heißt das Restaurant Fuji Sapa (Name auf dem verwendeten Logo) oder Fujisapa (im Internet im Impressum)"/>
    <tag k="name" v="Fujisapa"/>
    <tag k="website" v="https://www.fujisapa.de"/>
  </node>
  <node id="5909323217" version="1" timestamp="2018-09-16T07:41:19Z" lat="48.7624696" lon="9.269076">
    <tag k="amenity" v="fast_food"/>
    <tag k="name" v="s&apos;Kebable"/>
  </node>
  <node id="6053403411" version="1" timestamp="2018-11-11T22:01:47Z" lat="48.752263" lon="9.2748642">
    <tag k="amenity" v="restaurant"/>
    <tag k="name" v="Gaststätte Treibhaus"/>
  </node>
  <node id="6103832087" version="3" timestamp="2023-04-15T20:27:54Z" lat="48.7247056" lon="9.3605716">
    <tag k="addr:housenumber" v="108"/>
    <tag k="addr:street" v="Hauptstraße"/>
    <tag k="amenity" v="ice_cream"/>
    <tag k="contact:email" v="info@eiscafe-grimaldi-esslingen.de"/>
    <tag k="name" v="Eiscafe Grimaldi"/>
    <tag k="opening_hours" v="Mo-Fr 12:00-20:00; Sa 14:00-20:00; Su 13:00-20:00"/>
    <tag k="phone" v="+49 162 1706661"/>
    <tag k="website" v="https://www.eiscafe-grimaldi-esslingen.de/"/>
  </node>
  <node id="6103832285" version="3" timestamp="2023-06-04T15:27:30Z" lat="48.7247494" lon="9.360327">
    <tag k="amenity" v="bar"/>
    <tag k="check_date:opening_hours" v="2023-06-04"/>
    <tag k="name" v="Shisha Lounge Esvara"/>
    <tag k="opening_hours:signed" v="no"/>
  </node>
  <node id="6112573879" version="2" timestamp="2018-12-03T11:19:57Z" lat="48.7245386" lon="9.3521684">
    <tag k="amenity" v="fast_food"/>
    <tag k="name" v="Dr. Wok"/>
  </node>
  <node id="6140139660" version="2" timestamp="2021-03-13T01:16:38Z" lat="48.7389764" lon="9.3123205">
    <tag k="addr:city" v="Esslingen am Neckar"/>
    <tag k="addr:housenumber" v="10"/>
    <tag k="addr:postcode" v="73728"/>
    <tag k="addr:street" v="Obertorstraße"/>
    <tag k="amenity" v="restaurant"/>
    <tag k="cuisine" v="greek"/>
    <tag k="name" v="Greek Grill - Gyros &amp; More"/>
    <tag k="takeaway" v="yes"/>
  </node>
  <node id="6140150527" version="3" timestamp="2023-03-23T14:11:43Z" lat="48.7390059" lon="9.312525">
    <tag k="addr:city" v="Esslingen am Neckar"/>
    <tag k="addr:housenumber" v="7"/>
    <tag k="addr:postcode" v="73728"/>
    <tag k="addr:street" v="Obertorstraße"/>
    <tag k="amenity" v="restaurant"/>
    <tag k="cuisine" v="vietnamese"/>
    <tag k="delivery" v="no"/>
    <tag k="email" v="info@imreisfeld.de"/>
    <tag k="name" v="Im Reisfeld"/>
    <tag k="opening_hours" v="Tu-Fr 11:30-14:30, Tu-Th 17:30-22:00, Fr 17:00-23:00, Sa 11:30-23:00, Su 11:30-22:00"/>
    <tag k="phone" v="+49 711 50451124"/>
    <tag k="takeaway" v="yes"/>
    <tag k="website" v="https://imreisfeld.de/"/>
  </node>
  <node id="6264785285" version="1" timestamp="2019-02-07T21:55:14Z" lat="48.7622043" lon="9.2683748">
    <tag k="amenity" v="fast_food"/>
    <tag k="cuisine" v="asian"/>
    <tag k="name" v="Asia Wok"/>
  </node>
  <node id="6502333171" version="2" timestamp="2021-02-04T08:53:57Z" lat="48.7347819" lon="9.3002048">
    <tag k="amenity" v="pub"/>
    <tag k="entrance" v="yes"/>
    <tag k="name" v="Zollberg"/>
    <tag k="opening_hours" v="Tu-Th,Su 10:00-03:00, Mo 12:00-03:00, Fr,Sa 10:00-05:00"/>
  </node>
  <node id="6581714538" version="1" timestamp="2019-07-01T13:22:41Z" lat="48.7458722" lon="9.2798886">
    <tag k="addr:city" v="Esslingen am Neckar"/>
    <tag k="addr:country" v="DE"/>
    <tag k="addr:housenumber" v="13"/>
    <tag k="addr:postcode" v="73733"/>
    <tag k="addr:street" v="Rosenstraße"/>
    <tag k="addr:suburb" v="Mettingen"/>
    <tag k="amenity" v="restaurant"/>
    <tag k="cuisine" v="german;italian"/>
    <tag k="name" v="Gasthaus Urban Weinstube"/>
  </node>
  <node id="6669147485" version="3" timestamp="2023-01-21T17:52:59Z" lat="48.7364665" lon="9.3168828">
    <tag k="addr:postcode" v="73728"/>
    <tag k="amenity" v="fast_food"/>
    <tag k="cuisine" v="pasta;italian_pizza;italian"/>
    <tag k="name" v="Pizza &amp; Pasta Lieferdienst"/>
    <tag k="opening_hours" v="Mo-Su 10:00-23:00"/>
    <tag k="phone" v="+4971157747705"/>
    <tag k="website" v="https://www.pizza-pasta.net/"/>
  </node>
  <node id="6857237785" version="5" timestamp="2023-09-26T08:00:35Z" lat="48.7388309" lon="9.3033696">
    <tag k="access:covid19" v="no"/>
    <tag k="amenity" v="restaurant"/>
    <tag k="check_date:opening_hours" v="2023-06-30"/>
    <tag k="contact:phone" v="+49 711 91468333"/>
    <tag k="cuisine" v="asian"/>
    <tag k="name" v="Asia zur Krone"/>
    <tag k="opening_hours:signed" v="no"/>
    <tag k="takeaway:covid19" v="only"/>
  </node>
  <node id="6857237786" version="4" timestamp="2023-08-15T00:18:18Z" lat="48.7388114" lon="9.3046242">
    <tag k="access:covid19" v="no"/>
    <tag k="addr:city" v="Esslingen am Neckar"/>
    <tag k="addr:housenumber" v="33"/>
    <tag k="addr:postcode" v="73728"/>
    <tag k="addr:street" v="Pliensaustraße"/>
    <tag k="amenity" v="restaurant"/>
    <tag k="contact:phone" v="+49 711 54077593"/>
    <tag k="contact:website" v="http://oishii-sushi-esslingen.de/"/>
    <tag k="cuisine" v="sushi"/>
    <tag k="description:covid19" v="&quot;Bei Anruf nur am Fenster abholbar&quot;. Ob Bestellungen am Fenster auch möglich sind, war nicht herauszufinden."/>
    <tag k="name" v="Oishii"/>
    <tag k="opening_hours" v="Mo-Fr 11:30-15:00,16:00-22:00; Sa 11:30-22:00; Su 17:00-22:00; PH 17:00-22:00"/>
    <tag k="takeaway" v="yes"/>
    <tag k="takeaway:covid19" v="only"/>
    <tag k="wheelchair" v="yes"/>
  </node>
  <node id="6857237885" version="4" timestamp="2022-10-12T16:25:54Z" lat="48.738892" lon="9.3037678">
    <tag k="access:covid19" v="no"/>
    <tag k="addr:housenumber" v="2"/>
    <tag k="addr:street" v="Am Kronenhof"/>
    <tag k="amenity" v="restaurant"/>
    <tag k="contact:phone" v="+49 711 3966399"/>
    <tag k="contact:website" v="http://www.asia-es.de/"/>
    <tag k="cuisine" v="asian"/>
    <tag k="name" v="Asia imbiss"/>
    <tag k="opening_hours" v="Tu-Su 11:00-23:00; Mo off"/>
    <tag k="opening_hours:covid19" v="Mo-Su 11:00-20:00"/>
    <tag k="takeaway" v="yes"/>
    <tag k="takeaway:covid19" v="only"/>
    <tag k="toilets:wheelchair" v="no"/>
    <tag k="wheelchair" v="yes"/>
  </node>
  <node id="6918695484" version="5" timestamp="2022-10-12T16:57:17Z" lat="48.7400644" lon="9.3054074">
    <tag k="addr:city" v="Esslingen am Neckar"/>
    <tag k="addr:country" v="DE"/>
    <tag k="addr:housenumber" v="4"/>
    <tag k="addr:postcode" v="73728"/>
    <tag k="addr:street" v="Pliensaustraße"/>
    <tag k="amenity" v="fast_food"/>
    <tag k="contact:website" v="https://falafelerie-esslingen-vegetarisch-vegan-lecker.business.site/"/>
    <tag k="cuisine" v="falafel"/>
    <tag k="diet:vegan" v="yes"/>
    <tag k="diet:vegetarian" v="only"/>
    <tag k="name" v="Falafelerie"/>
    <tag k="opening_hours" v="Mo-Sa 11:30-20:00"/>
    <tag k="outdoor_seating" v="yes"/>
    <tag k="takeaway" v="yes"/>
    <tag k="wheelchair" v="no"/>
  </node>
  <node id="6960472049" version="3" timestamp="2023-01-21T17:52:59Z" lat="48.729063" lon="9.3392882">
    <tag k="addr:city" v="Esslingen am Neckar"/>
    <tag k="addr:country" v="DE"/>
    <tag k="addr:housenumber" v="41"/>
    <tag k="addr:postcode" v="73730"/>
    <tag k="addr:street" v="Weiherstraße"/>
    <tag k="addr:suburb" v="Oberesslingen"/>
    <tag k="amenity" v="cafe"/>
    <tag k="name" v="Café am Zimmerbach"/>
    <tag k="opening_hours" v="mo-fr 12:00-13:30; tu,th,fr,su 14:30-17:00; Sa off"/>
    <tag k="phone" v="+49 711 351 7251 20"/>
    <tag k="wheelchair" v="yes"/>
  </node>
  <node id="7179697291" version="3" timestamp="2022-03-15T23:19:55Z" lat="48.7391788" lon="9.3005772">
    <tag k="amenity" v="fast_food"/>
    <tag k="brand" v="Burger King"/>
    <tag k="brand:wikidata" v="Q177054"/>
    <tag k="brand:wikipedia" v="en:Burger King"/>
    <tag k="cuisine" v="burger"/>
    <tag k="name" v="Burger King"/>
    <tag k="takeaway" v="yes"/>
    <tag k="wheelchair" v="no"/>
  </node>
  <node id="7297790529" version="1" timestamp="2020-03-15T22:58:50Z" lat="48.7300719" lon="9.2732035">
    <tag k="addr:city" v="Ostfildern"/>
    <tag k="addr:housenumber" v="3"/>
    <tag k="addr:place" v="Domäne Weil"/>
    <tag k="addr:postcode" v="73760"/>
    <tag k="amenity" v="restaurant"/>
    <tag k="contact:website" v="https://domaene-weil.de/"/>
    <tag k="name" v="Weinstube und Hofcafé Domäne Weil"/>
  </node>
  <node id="7409684984" version="2" timestamp="2023-07-21T17:26:21Z" lat="48.7488356" lon="9.3142965">
    <tag k="addr:city" v="Esslingen am Neckar"/>
    <tag k="addr:housenumber" v="3"/>
    <tag k="addr:postcode" v="73732"/>
    <tag k="addr:street" v="Pfaffenackerstraße"/>
    <tag k="amenity" v="cafe"/>
    <tag k="check_date:opening_hours" v="2023-07-21"/>
    <tag k="cuisine" v="coffee_shop"/>
    <tag k="internet_access" v="wlan"/>
    <tag k="internet_access:fee" v="no"/>
    <tag k="name" v="team:orange Werbeagentur"/>
    <tag k="opening_hours" v="Mo-Fr 08:00-18:00"/>
    <tag k="opening_hours:signed" v="no"/>
    <tag k="outdoor_seating" v="no"/>
  </node>
  <node id="7463011317" version="2" timestamp="2023-04-18T07:35:02Z" lat="48.7406067" lon="9.3041894">
    <tag k="addr:city" v="Esslingen am Neckar"/>
    <tag k="addr:housenumber" v="14"/>
    <tag k="addr:postcode" v="73728"/>
    <tag k="addr:street" v="Unterer Metzgerbach"/>
    <tag k="amenity" v="cafe"/>
    <tag k="name" v="Fräulein Margot - Café in der goldenen Biene"/>
    <tag k="opening_hours" v="We-Sa 09:00-18:00; Su 09:00-17:00"/>
    <tag k="website" v="https://fraeulein-margot.de/"/>
  </node>
  <node id="7685348543" version="3" timestamp="2023-08-28T14:52:06Z" lat="48.7418622" lon="9.3084518">
    <tag k="amenity" v="restaurant"/>
    <tag k="cuisine" v="regional"/>
    <tag k="name" v="Mattis"/>
    <tag k="opening_hours" v="Mo-Fr 11:45-14:00; We-Sa 17:30-23:00; Sa 11:45-14:30"/>
    <tag k="outdoor_seating" v="yes"/>
    <tag k="phone" v="071193595992"/>
  </node>
  <node id="7820587460" version="7" timestamp="2024-03-17T09:05:23Z" lat="48.7403633" lon="9.304604">
    <tag k="addr:city" v="Esslingen"/>
    <tag k="addr:housenumber" v="9"/>
    <tag k="addr:postcode" v="73728"/>
    <tag k="addr:street" v="Unterer Metzgerbach"/>
    <tag k="amenity" v="cafe"/>
    <tag k="contact:instagram" v="Findelkind.Cafe"/>
    <tag k="contact:phone" v="+49 711 91225011"/>
    <tag k="contact:website" v="https://findelkind.cafe"/>
    <tag k="diet:vegan" v="yes"/>
    <tag k="internet_access" v="wlan"/>
    <tag k="internet_access:fee" v="customers"/>
    <tag k="name" v="Findelkind"/>
    <tag k="opening_hours" v="Tu-Th 09:00-18:00; Fr,Sa 09:00-18:00,19:00-24:00; Su 10:00-18:00"/>
    <tag k="start_date" v="2021-07"/>
  </node>
  <node id="7820587461" version="1" timestamp="2020-08-17T15:36:11Z" lat="48.7430152" lon="9.3065951">
    <tag k="amenity" v="restaurant"/>
    <tag k="cuisine" v="international"/>
    <tag k="name" v="1582"/>
    <tag k="outdoor_seating" v="yes"/>
  </node>
  <node id="7837769161" version="4" timestamp="2021-09-12T07:55:59Z" lat="48.761418" lon="9.27107">
    <tag k="addr:city" v="Stuttgart"/>
    <tag k="addr:country" v="DE"/>
    <tag k="addr:housenumber" v="697"/>
    <tag k="addr:postcode" v="70329"/>
    <tag k="addr:street" v="Augsburger Straße"/>
    <tag k="amenity" v="restaurant"/>
    <tag k="cuisine" v="vietnamese"/>
    <tag k="name" v="Viet Tasty"/>
    <tag k="opening_hours" v="Mo-Tu 11:00-14:30, 17:00-22:00; Th-Fr 11:00-14:30, 17:00-22:00; Sa-Su 15:00-22:00"/>
    <tag k="phone" v="+49 711 28451716"/>
    <tag k="website" v="https://viet-tasty.de/"/>
  </node>
  <node id="7954386249" version="2" timestamp="2020-12-05T18:03:53Z" lat="48.7397414" lon="9.3044654">
    <tag k="amenity" v="fast_food"/>
    <tag k="cuisine" v="kebab"/>
    <tag k="name" v="Esslingen Kebap Haus"/>
  </node>
  <node id="7954386250" version="2" timestamp="2024-03-09T17:17:27Z" lat="48.7401081" lon="9.3042572">
    <tag k="addr:housenumber" v="4"/>
    <tag k="addr:street" v="Martinstraße"/>
    <tag k="amenity" v="cafe"/>
    <tag k="delivery" v="yes"/>
    <tag k="internet_access" v="wlan"/>
    <tag k="internet_access:fee" v="customers"/>
    <tag k="name" v="mi chiamo ... café"/>
    <tag k="opening_hours" v="Mo-Th 09:00-16:00; Fr-Su 09:00-18:00"/>
    <tag k="phone" v="+49 711 35152166"/>
    <tag k="takeaway" v="yes"/>
    <tag k="website" v="https://www.michiamocafe.de/"/>
    <tag k="website:menu" v="https://www.michiamocafe.de/menu"/>
  </node>
  <node id="7998118564" version="7" timestamp="2024-03-17T08:48:43Z" lat="48.7402442" lon="9.3047617">
    <tag k="addr:housenumber" v="13"/>
    <tag k="addr:street" v="Unterer Metzgerbach"/>
    <tag k="amenity" v="cafe"/>
    <tag k="check_date:opening_hours" v="2023-04-18"/>
    <tag k="diet:vegan" v="yes"/>
    <tag k="dog" v="yes"/>
    <tag k="internet_access" v="wlan"/>
    <tag k="internet_access:fee" v="customers"/>
    <tag k="name" v="moos"/>
    <tag k="opening_hours" v="Mo-Su 10:00-17:00"/>
    <tag k="opening_hours:signed" v="no"/>
    <tag k="payment:cash" v="no"/>
    <tag k="payment:credit_cards" v="yes"/>
    <tag k="payment:paypal" v="yes"/>
    <tag k="website" v="https://www.moos-cafe.de/"/>
  </node>
  <node id="8151615577" version="1" timestamp="2020-11-22T16:44:44Z" lat="48.7492519" lon="9.2758989">
    <tag k="addr:city" v="Esslingen am Neckar"/>
    <tag k="addr:country" v="DE"/>
    <tag k="addr:housenumber" v="1"/>
    <tag k="addr:postcode" v="73733"/>
    <tag k="addr:street" v="Obertürkheimer Straße"/>
    <tag k="addr:suburb" v="Mettingen"/>
    <tag k="amenity" v="fast_food"/>
    <tag k="delivery" v="yes"/>
    <tag k="name" v="Midnight Pizzeria"/>
    <tag k="opening_hours" v="Mo-Su 14:00-02:00, PH 14:00-02:00"/>
    <tag k="takeaway" v="yes"/>
  </node>
  <node id="8700424931" version="1" timestamp="2021-05-05T06:12:50Z" lat="48.7358783" lon="9.2994394">
    <tag k="amenity" v="cafe"/>
    <tag k="description:de" v="Crepes, Kaffee"/>
    <tag k="name" v="Display"/>
    <tag k="opening_hours" v="Mo 09:00-20:00; We-Su 09:00-20:00; Tu,PH off"/>
  </node>
  <node id="9045699665" version="1" timestamp="2021-08-29T18:37:47Z" lat="48.741784" lon="9.2915247">
    <tag k="addr:city" v="Esslingen am Neckar"/>
    <tag k="addr:country" v="DE"/>
    <tag k="addr:housenumber" v="113"/>
    <tag k="addr:postcode" v="73728"/>
    <tag k="addr:street" v="Mettinger Straße"/>
    <tag k="amenity" v="restaurant"/>
    <tag k="cuisine" v="turkish"/>
    <tag k="name" v="Arkadasch"/>
    <tag k="outdoor_seating" v="yes"/>
  </node>
  <node id="9219800904" version="3" timestamp="2023-07-21T21:57:43Z" lat="48.7391704" lon="9.3048703">
    <tag k="amenity" v="cafe"/>
    <tag k="brand" v="Teeamo"/>
    <tag k="brand:wikidata" v="Q111923135"/>
    <tag k="cuisine" v="bubble_tea"/>
    <tag k="name" v="Teeamo"/>
    <tag k="opening_hours" v="Mo-Th 12:00-18:30; Fr-Sa 11:30-20:00; Su,PH 13:00-19:00"/>
    <tag k="takeaway" v="yes"/>
    <tag k="wheelchair" v="no"/>
  </node>
  <node id="9468391012" version="5" timestamp="2024-03-09T18:34:20Z" lat="48.7326575" lon="9.338422">
    <tag k="addr:housenumber" v="69"/>
    <tag k="addr:street" v="Schorndorfer Straße"/>
    <tag k="amenity" v="cafe"/>
    <tag k="description" v="feel good café &amp; bistro"/>
    <tag k="diet:gluten_free" v="yes"/>
    <tag k="diet:vegetarian" v="yes"/>
    <tag k="name" v="Hygge Café und Bistro"/>
    <tag k="opening_hours" v="Mo-Fr 08:00-15:00; Sa, Su 09:00-13:00"/>
    <tag k="phone" v="+4971150455416"/>
    <tag k="website" v="https://www.hygge-esslingen.de/"/>
  </node>
  <node id="9695389013" version="2" timestamp="2023-04-03T09:09:11Z" lat="48.7422729" lon="9.3080709">
    <tag k="addr:city" v="Esslingen am Neckar"/>
    <tag k="addr:country" v="DE"/>
    <tag k="addr:housenumber" v="1"/>
    <tag k="addr:postcode" v="73728"/>
    <tag k="addr:street" v="Hafenmarkt"/>
    <tag k="amenity" v="restaurant"/>
    <tag k="cuisine" v="regional"/>
    <tag k="email" v="info@ratskeller-esslingen.de"/>
    <tag k="name" v="Ratskeller"/>
    <tag k="opening_hours" v="Tu-Fr 12:00-15:00,18:00-22:00; Sa 12:00-22:00"/>
    <tag k="outdoor_seating" v="yes"/>
    <tag k="phone" v="+49 711 57747208"/>
    <tag k="takeaway" v="yes"/>
    <tag k="website" v="https://www.ratskeller-esslingen.de/"/>
  </node>
  <node id="9757148306" version="2" timestamp="2023-03-13T15:05:26Z" lat="48.7389151" lon="9.3019801">
    <tag k="amenity" v="pub"/>
    <tag k="name" v="Dinkelacker"/>
    <tag k="opening_hours" v="Mo-Fr 08:00-02:00, PH,Sa,Su 08:00-03:00"/>
  </node>
  <node id="9757158356" version="3" timestamp="2023-06-29T22:18:45Z" lat="48.7389957" lon="9.3020273">
    <tag k="amenity" v="pub"/>
    <tag k="check_date:opening_hours" v="2023-06-29"/>
    <tag k="name" v="Kroneneck"/>
    <tag k="opening_hours" v="Mo-Th 08:00-03:00, Fr,Sa 08:00-05:00, Su 08:30-03:00"/>
  </node>
  <node id="9801455403" version="1" timestamp="2022-06-07T11:37:05Z" lat="48.7376349" lon="9.3141776">
    <tag k="amenity" v="fast_food"/>
    <tag k="name" v="Viyan Kebap"/>
  </node>
  <node id="10098634984" version="1" timestamp="2022-10-13T17:39:49Z" lat="48.764999" lon="9.2522484">
    <tag k="addr:city" v="Stuttgart"/>
    <tag k="addr:housenumber" v="29"/>
    <tag k="addr:postcode" v="70327"/>
    <tag k="addr:street" v="Kesselstraße"/>
    <tag k="amenity" v="restaurant"/>
    <tag k="cuisine" v="italian"/>
    <tag k="email" v="ciao@wiesenauerlaeuten.de"/>
    <tag k="name" v="Restaurant Wiesenauerläuten"/>
    <tag k="phone" v="+49 711 88775455"/>
    <tag k="website" v="https://www.wiesenauerlaeuten.de/"/>
  </node>
  <node id="10169798417" version="3" timestamp="2022-11-08T18:56:05Z" lat="48.742659" lon="9.3072878">
    <tag k="addr:postcode" v="73728"/>
    <tag k="amenity" v="bar"/>
    <tag k="email" v="vinothek.am.markt@teamwerk-esslingen.de"/>
    <tag k="internet_access" v="wlan"/>
    <tag k="name" v="Vinothek am Markt"/>
    <tag k="opening_hours" v="We-Th 15:00-22:00; Fr 15:00-23:00; Sa 10:00-23:00; Su 13:00-20:00"/>
    <tag k="operator" v="Teamwerk Esslingen"/>
    <tag k="phone" v="+49 711 89538577"/>
    <tag k="website" v="https://www.weingaertneresslingen.de/vinotheken.html"/>
  </node>
  <node id="10291941701" version="1" timestamp="2022-12-28T19:04:52Z" lat="48.7393658" lon="9.3058263">
    <tag k="amenity" v="restaurant"/>
    <tag k="contact:facebook" v="https://www.facebook.com/Floras-Bistro-Caf%C3%A8-Bar-119851734709178/"/>
    <tag k="cuisine" v="italian"/>
    <tag k="name" v="Flora&apos;s Bistro Bar"/>
  </node>
  <node id="10291941702" version="1" timestamp="2022-12-28T19:04:52Z" lat="48.7394335" lon="9.3059544">
    <tag k="amenity" v="restaurant"/>
    <tag k="contact:facebook" v="https://www.facebook.com/people/Lokal-Bar-Marie/100063477851471/"/>
    <tag k="name" v="Lokal-Bar marie"/>
  </node>
  <node id="10291941707" version="1" timestamp="2022-12-28T19:04:52Z" lat="48.7392311" lon="9.3060335">
    <tag k="amenity" v="bar"/>
    <tag k="name" v="Cafe Bar Viva"/>
    <tag k="smoking" v="yes"/>
  </node>
  <node id="10291941708" version="1" timestamp="2022-12-28T19:04:52Z" lat="48.7393107" lon="9.3061461">
    <tag k="amenity" v="bar"/>
    <tag k="name" v="Café Bar Berta"/>
    <tag k="smoking" v="yes"/>
  </node>
  <node id="10291957809" version="1" timestamp="2022-12-28T19:04:52Z" lat="48.7392731" lon="9.3062071">
    <tag k="amenity" v="bar"/>
    <tag k="contact:facebook" v="https://www.facebook.com/people/Small-Caf%C3%A9-Bar/100063479712575/"/>
    <tag k="name" v="Small Café Bar"/>
  </node>
  <node id="10291957810" version="1" timestamp="2022-12-28T19:04:52Z" lat="48.7392329" lon="9.3062843">
    <tag k="amenity" v="bar"/>
    <tag k="name" v="21 Cafe Bar"/>
  </node>
  <node id="10312795583" version="2" timestamp="2023-06-07T17:23:11Z" lat="48.7328392" lon="9.3316885">
    <tag k="amenity" v="restaurant"/>
    <tag k="cuisine" v="greek;barbecue"/>
    <tag k="delivery" v="Möglich"/>
    <tag k="name" v="Olympous Greec Mix Grill&amp;Salad"/>
    <tag k="takeaway" v="only"/>
  </node>
  <node id="10593585921" version="1" timestamp="2023-01-30T08:39:21Z" lat="48.7306984" lon="9.3282396">
    <tag k="addr:city" v="Esslingen am Neckar"/>
    <tag k="addr:housenumber" v="7"/>
    <tag k="addr:postcode" v="73730"/>
    <tag k="addr:street" v="Indexstraße"/>
    <tag k="amenity" v="pub"/>
    <tag k="name" v="Bräustüble"/>
  </node>
  <node id="10745162235" version="4" timestamp="2023-04-12T11:58:24Z" lat="48.7515474" lon="9.2875355">
    <tag k="addr:city" v="Esslingen am Neckar"/>
    <tag k="addr:housenumber" v="104"/>
    <tag k="addr:postcode" v="73733"/>
    <tag k="addr:street" v="Kelterstraße"/>
    <tag k="amenity" v="restaurant"/>
    <tag k="cuisine" v="regional"/>
    <tag k="description" v="Schwäbisch-gutbürgerliche Küche, sommers auch mit Balkon-Terrasse und Gartenwirtschaft"/>
    <tag k="name" v="Hotel Kelter"/>
    <tag k="opening_hours" v="We-Su 11:00-14:00, 17:00-22:00"/>
    <tag k="phone" v="+49 711 91 89 06 0"/>
    <tag k="website" v="https://hotelkelter-esslingen.de/"/>
  </node>
  <node id="10750831106" version="1" timestamp="2023-03-21T13:04:34Z" lat="48.7609022" lon="9.2553324">
    <tag k="addr:postcode" v="70329"/>
    <tag k="amenity" v="restaurant"/>
    <tag k="contact:facebook" v="gourmetpalaststuttgart"/>
    <tag k="contact:instagram" v="gourmet_palast_stuttgart"/>
    <tag k="cuisine" v="asian"/>
    <tag k="email" v="info@gourmet-palast-stuttgart.de"/>
    <tag k="name" v="Gourmet Palast"/>
    <tag k="opening_hours" v="Tu-Su 11:30-15:00, 17:30-23:00"/>
    <tag k="phone" v="+4971169988877"/>
    <tag k="website" v="https://www.gourmet-palast-stuttgart.de/"/>
  </node>
  <node id="10816471364" version="2" timestamp="2024-03-08T21:06:59Z" lat="48.7245475" lon="9.3625796">
    <tag k="addr:housenumber" v="126"/>
    <tag k="addr:street" v="Haupstraße"/>
    <tag k="amenity" v="restaurant"/>
    <tag k="description" v="Indisches Restaurant"/>
    <tag k="name" v="Rose Tandoori"/>
    <tag k="opening_hours" v="Mo 10:45-14:00,16:30-23:00; Tu off; We-Fr 10:45-14:00,16:30-23:00; Sa 11:00-22:30; Su 11:00-22:30; "/>
    <tag k="phone" v="0711/41054567"/>
    <tag k="website" v="https://rose-tandoori.de/"/>
  </node>
  <node id="10847192461" version="1" timestamp="2023-04-27T21:55:48Z" lat="48.7571734" lon="9.2567977">
    <tag k="addr:city" v="Stuttgart"/>
    <tag k="addr:housenumber" v="39"/>
    <tag k="addr:postcode" v="70329"/>
    <tag k="addr:street" v="Amstetter Straße"/>
    <tag k="amenity" v="restaurant"/>
    <tag k="cuisine" v="egyptian"/>
    <tag k="email" v="info@al-bayt.de"/>
    <tag k="facebook" v="https://www.facebook.com/profile.php?id=100091500889241"/>
    <tag k="name" v="Albayt"/>
    <tag k="phone" v="+49 152 59869698"/>
  </node>
  <node id="10964172929" version="2" timestamp="2024-02-14T23:14:26Z" lat="48.7297453" lon="9.3319521">
    <tag k="amenity" v="pub"/>
    <tag k="name" v="Funzel"/>
    <tag k="opening_hours" v="Aug-Oct PH,Mo-Su 16:00-02:00"/>
  </node>
  <node id="11138886941" version="1" timestamp="2023-08-23T12:36:44Z" lat="48.737294" lon="9.3262381">
    <tag k="addr:city" v="Esslingen am Neckar"/>
    <tag k="addr:housenumber" v="97"/>
    <tag k="addr:postcode" v="73730"/>
    <tag k="addr:street" v="Hirschlandstraße"/>
    <tag k="amenity" v="cafe"/>
    <tag k="cuisine" v="coffee_shop"/>
    <tag k="internet_access" v="wlan"/>
    <tag k="internet_access:fee" v="no"/>
    <tag k="name" v="Café Ambiente"/>
    <tag k="opening_hours" v="Mo-Su 07:00-20:00"/>
    <tag k="outdoor_seating" v="yes"/>
    <tag k="phone" v="+49 (0) 711 310382122"/>
    <tag k="website" v="https://www.klinikum-esslingen.de/ihr-aufenthalt/serviceangebote-von-a-z/"/>
  </node>
  <node id="11171483443" version="2" timestamp="2024-03-09T18:44:25Z" lat="48.7402643" lon="9.3044756">
    <tag k="amenity" v="cafe"/>
    <tag k="cuisine" v="turkish"/>
    <tag k="diet:vegan" v="yes"/>
    <tag k="diet:vegetarian" v="yes"/>
    <tag k="name" v="Kano&apos;s Breakfast"/>
    <tag k="opening_hours" v="Mo-Th 09:00-16:00; Fr-Su 09:00-17:00"/>
    <tag k="phone" v="+49 711 88807426"/>
    <tag k="website" v="https://kanos-breakfast.de/"/>
  </node>
  <node id="11207530303" version="2" timestamp="2023-09-21T12:04:14Z" lat="48.7359687" lon="9.307462">
    <tag k="amenity" v="biergarten"/>
    <tag k="email" v="info@fuenfbisneun.de"/>
    <tag k="name" v="Cafe Bar fuenfbisneun (im Exil)"/>
    <tag k="opening_hours" v="Th-Fr 16:00 - 22:00; Sa-Su 14:00 - 22:00"/>
    <tag k="website" v="http://www.fuenfbisneun.de"/>
  </node>
  <node id="11375526469" version="1" timestamp="2023-11-25T16:10:58Z" lat="48.742535" lon="9.3074123">
    <tag k="amenity" v="cafe"/>
    <tag k="name" v="Bäckerei Schutheiss"/>
  </node>
  <node id="11391519769" version="1" timestamp="2023-12-03T09:06:09Z" lat="48.7413884" lon="9.2995569">
    <tag k="amenity" v="bar"/>
    <tag k="name" v="Mauritius"/>
  </node>
  <node id="11624942296" version="1" timestamp="2024-02-14T23:15:10Z" lat="48.7327092" lon="9.3267465">
    <tag k="amenity" v="fast_food"/>
    <tag k="description" v="türkisch esssen"/>
    <tag k="name" v="A-Y-A-Z"/>
    <tag k="opening_hours" v="Mo-Sa 10:00-21:00"/>
    <tag k="phone" v="+49711-5509549"/>
  </node>
  <node id="11690066279" version="1" timestamp="2024-03-04T07:27:38Z" lat="48.745409" lon="9.2780788">
    <tag k="amenity" v="restaurant"/>
    <tag k="cuisine" v="german;greek"/>
    <tag k="name" v="Sandgrube"/>
  </node>
</osm>
